id,name,address,city,openfrom,opento,latitude,longitude
1,Bednar and Sons,314 Arrowood Center,Zekou,10:00 AM,1:30 PM,25.948109,118.589396
2,Schulist-Conroy,6244 Starling Center,Pailiao,7:30 AM,1:30 PM,42.9177058,125.0428455
3,Smith Group,332 Northwestern Drive,Jimusa’er,7:30 AM,1:00 PM,43.9912932,89.1806674
4,Batz-Jerde,020 Ramsey Hill,Cimanggu Wetan,10:30 AM,5:00 PM,-6.8128491,107.5087328
5,Howe-Heaney,572 Forest Circle,Bondowoso,8:00 AM,3:30 PM,-7.9673906,113.9060624
6,Gleichner-Dooley,917 Bashford Avenue,Changfeng,8:30 AM,2:30 PM,32.478018,117.167563
7,Gaylord-Streich,0 Bay Hill,Nokaneng,8:30 AM,1:30 PM,-19.6633028,22.1936928
8,Hand-Hand,866 Eastwood Pass,Kishorganj,7:00 AM,1:00 PM,24.2442046,90.8163059
9,"Wehner, Hoeger and Hintz",666 Nobel Point,Júlio de Castilhos,10:00 AM,1:30 PM,-29.2293516,-53.6827015
10,"Schaden, Jacobs and Swaniawski",92277 Emmet Trail,Pojok,10:30 AM,3:00 PM,-7.8169756,111.9790773
11,Bauch-Howe,82 Rigney Junction,Omaha,9:30 AM,1:30 PM,41.2418116,-95.9673967
12,Mosciski-Runolfsdottir,9583 Redwing Park,Francisco I Madero,11:00 AM,5:00 PM,25.7784224,-103.2605763
13,"Nader, Powlowski and Jakubowski",8465 Clemons Junction,Tuguan,8:00 AM,1:30 PM,23.146358,113.265008
14,"Price, Paucek and Williamson",302 Arapahoe Court,Kuiyong,7:00 AM,4:30 PM,22.630834,114.4194
15,Farrell-Hermiston,10 Kedzie Center,Goght’,10:00 AM,2:00 PM,40.1366726,44.7810683
16,"McCullough, Sanford and Casper",837 Scott Junction,Shazi,10:30 AM,3:00 PM,31.938731,113.165197
17,Lehner-Hodkiewicz,607 Sauthoff Lane,Mufulira,11:00 AM,3:30 PM,-12.5502705,28.2409671
18,Yundt-Kemmer,214 Farwell Junction,Loučeň,10:30 AM,4:00 PM,50.2770333,15.0197682
19,"Kozey, Cruickshank and Ernser",32642 Mccormick Junction,Arauá,7:00 AM,4:00 PM,-11.2780052,-37.5747647
20,"Ruecker, Wuckert and Herzog",66657 Ludington Terrace,Dzyarzhynsk,10:00 AM,2:00 PM,53.6849853,27.1325559
21,Moore-Zboncak,0 Memorial Way,Velestíno,8:30 AM,3:30 PM,39.3809141,22.7451966
22,Schuppe and Sons,3 Butternut Drive,Masantol,10:00 AM,2:00 PM,14.880403,120.7063932
23,Kovacek-Carter,98471 Michigan Junction,Kobylí,9:00 AM,5:00 PM,48.9398644,16.8996364
24,Crooks-Bechtelar,3 Lyons Pass,Jambean,9:30 AM,4:00 PM,-7.9299269,111.9671537
25,Hyatt and Sons,89 Pennsylvania Park,Wangon,8:00 AM,5:00 PM,-7.5178871,109.0572086
26,"Nicolas, Kozey and Rutherford",39 Welch Plaza,Yanjiang,10:00 AM,3:00 PM,30.108216,104.677091
27,Sporer LLC,6 Hoepker Road,Wolomoni,8:30 AM,3:30 PM,-8.7433,121.7445
28,Klein and Sons,78775 Linden Alley,Allen,10:00 AM,1:30 PM,-38.977251,-67.826868
29,Spinka LLC,81 Morning Way,Qaram Qōl,10:30 AM,2:00 PM,36.533333,69.016667
30,"Howe, Larkin and Hermiston",05 Bartelt Avenue,Belén de Umbría,7:30 AM,2:30 PM,5.2351338,-75.8346203
31,Hackett and Sons,15 Susan Circle,Lyubokhna,8:30 AM,3:30 PM,53.4808987,34.4602881
32,Pollich-Jacobson,7 Calypso Street,Baun,7:30 AM,4:00 PM,-10.3023,123.710098
33,Mayert and Sons,75178 Northview Drive,Pamyat’ Parizhskoy Kommuny,9:30 AM,4:00 PM,56.1085807,44.4955531
34,Fahey Group,3953 Daystar Court,Putang,8:00 AM,1:00 PM,31.5646844,118.993754
35,Hammes-Davis,5618 Tennessee Street,Xiaozhoushan,11:00 AM,5:00 PM,28.201091,120.39409
36,Legros-Windler,389 Riverside Place,Mladá Boleslav,9:00 AM,1:00 PM,50.4134249,14.908438
37,Gislason Inc,5778 Northport Center,Pulau Pinang,9:30 AM,2:30 PM,5.3523231,100.3573891
38,Walter LLC,06411 Sheridan Pass,Perth,10:30 AM,5:00 PM,-31.9505269,115.8604572
39,Schaefer-Turner,25 Elmside Parkway,Kuršėnai,8:00 AM,1:00 PM,55.985,22.91889
40,Weimann Group,25307 Darwin Hill,Xiaozhen,8:00 AM,2:30 PM,24.690585,115.264971
41,"Kuhic, King and Labadie",992 Forster Avenue,Ashmūn,8:30 AM,3:00 PM,30.2977417,30.9783805
42,Pfannerstill and Sons,66 Oak Valley Circle,Barinitas,10:30 AM,5:00 PM,8.7548237,-70.401535
43,Howell LLC,72773 School Alley,Barkly East,9:30 AM,3:00 PM,-30.8263741,27.9776173
44,Crooks LLC,328 Monica Way,Schroeder,10:30 AM,3:30 PM,-26.3749827,-49.0615086
45,Runolfsdottir-Barton,0 Vera Junction,Shijiao,9:30 AM,3:00 PM,23.259479,113.824887
46,Windler and Sons,107 Columbus Road,Taldykorgan,7:00 AM,1:30 PM,45.0177112,78.3804417
47,Bergstrom-Homenick,4349 Dawn Center,Stockholm,10:30 AM,3:00 PM,59.3125021,18.0760798
48,Ferry-Douglas,5480 Bellgrove Avenue,Vila Nova da Baronia,9:00 AM,5:00 PM,38.2887838,-8.0376603
49,Mayer Group,79 Maple Plaza,Slovenske Konjice,10:00 AM,4:30 PM,46.3369191,15.4214708
50,Stanton Group,1 Walton Lane,Sirib,10:30 AM,1:00 PM,7.1052043,125.3996693
51,Buckridge-Tromp,7088 Hoard Pass,Concepción,10:00 AM,1:00 PM,-36.8201352,-73.0443904
52,White and Sons,61491 Calypso Crossing,Mloko,8:00 AM,3:30 PM,-7.3608928,110.1726465
53,Brown-Spinka,59 Transport Center,Butajīra,10:30 AM,4:00 PM,8.116779,38.3745149
54,Huel-Lockman,62 Melvin Center,Mosopa,9:00 AM,4:30 PM,-24.7762704,25.4141193
55,"Harber, Zboncak and Effertz",1611 Sommers Way,Rimus,11:00 AM,2:30 PM,14.6287391,121.0577928
56,"Donnelly, Kiehn and Greenholt",0 Sunfield Junction,Huangcun,10:00 AM,1:30 PM,23.131797,113.407143
57,MacGyver-Rodriguez,37 Kenwood Junction,Samamiya,7:30 AM,3:00 PM,11.3460734,9.6591939
58,Simonis Group,57 Union Drive,Novyye Kuz’minki,10:00 AM,3:30 PM,55.7,37.75
59,Reinger-Hammes,343 Atwood Point,Laojunmiao,7:00 AM,3:30 PM,33.700795,111.657781
60,"Watsica, Miller and Rosenbaum",896 Shoshone Plaza,Uvarovo,9:00 AM,4:30 PM,52.0016128,42.344717
61,"Conn, Von and Ruecker",2 Pleasure Park,Thika,10:00 AM,3:00 PM,-1.0387569,37.0833753
62,Lakin LLC,40 Cardinal Center,Calape,8:00 AM,2:30 PM,9.8411782,123.9121342
63,Weissnat LLC,8 Loomis Circle,Yanacancha,8:30 AM,1:00 PM,-12.2,-75.416667
64,"Heller, O'Keefe and Homenick",7658 Londonderry Alley,Uitenhage,10:30 AM,4:30 PM,-33.8117747,25.3844968
65,Trantow-Lubowitz,59 Elka Way,Pamyat’ Parizhskoy Kommuny,10:30 AM,2:30 PM,56.1085807,44.4955531
66,"Windler, Maggio and Dibbert",60 Jay Plaza,Skoútari,8:30 AM,2:30 PM,41.0184587,23.5206341
67,"Leuschke, Sauer and Nienow",9207 Saint Paul Lane,Zengji,10:30 AM,1:00 PM,30.728746,112.382644
68,Gottlieb and Sons,48683 Butterfield Trail,Bratislava,10:30 AM,3:30 PM,48.1206294,17.1168892
69,Hermiston and Sons,4692 Homewood Trail,Kranggan,7:30 AM,3:30 PM,-7.3,109.066667
70,Robel Group,70 5th Pass,Markušica,7:30 AM,3:30 PM,45.3612879,18.693916
71,"Rath, Dooley and Bednar",5 Cascade Parkway,Abū Qalqal,10:30 AM,2:00 PM,36.43806,38.11984
72,Collier-Hintz,3 Sloan Pass,Xianghu,7:00 AM,3:00 PM,30.167585,120.234391
73,"Halvorson, Koepp and Goldner",6602 Waxwing Street,Neochóri,8:00 AM,1:30 PM,39.3046388,23.2207655
74,Johnston LLC,18224 Green Hill,Yangtan,9:30 AM,2:30 PM,28.260189,117.069202
75,Ryan-Dach,2770 Jay Hill,Sukorejo,9:00 AM,4:00 PM,-7.1477523,109.9854145
76,Spinka LLC,08 Bellgrove Way,Oshnavīyeh,7:00 AM,2:30 PM,37.0364358,45.0971372
77,"Johnston, Towne and Welch",6572 Trailsway Circle,Massy,10:30 AM,1:00 PM,48.732568,2.2889821
78,Watsica-Kilback,90 Sauthoff Pass,La Romana,11:00 AM,2:00 PM,18.9313146,-70.4070779
79,Nitzsche Inc,4 Elgar Center,Dresden,8:30 AM,3:00 PM,51.0845418,13.6458926
80,Mills-Ortiz,529 Homewood Alley,Al Jubayhah,9:30 AM,3:00 PM,32.0188765,35.881947
81,Wolff and Sons,01147 Independence Avenue,Seara,10:30 AM,1:30 PM,41.6929759,-8.2060587
82,D'Amore Inc,16 Grover Street,Tierp,9:30 AM,2:30 PM,60.3475866,17.5205087
83,Rath-McLaughlin,72 Troy Alley,Kablukan,10:30 AM,4:00 PM,-6.9841118,111.7048262
84,"Jacobson, Pacocha and Erdman",03 Miller Place,Tarakaniv,8:30 AM,3:30 PM,50.3838631,25.7085224
85,"Herman, Herman and Senger",189 Forest Plaza,Maibu,8:30 AM,2:30 PM,14.7040326,121.0657914
86,Dicki Inc,0 Dapin Circle,Vostochnyy,11:00 AM,1:00 PM,55.816131,37.8768991
87,"Lesch, Predovic and Swaniawski",9348 Truax Pass,Lenchwe Le Tau,7:00 AM,4:00 PM,-24.383333,25.85
88,Johnson Inc,42 Erie Avenue,Houxiang,8:30 AM,4:00 PM,31.936876,112.662673
89,"Volkman, Schmeler and Feeney",90750 Helena Trail,Wiwilí,10:30 AM,3:00 PM,13.621654,-85.8255855
90,"Ferry, Will and Crist",92039 Homewood Point,Fenghuang,8:30 AM,4:00 PM,27.948308,109.599191
91,Doyle and Sons,1 Eastwood Court,Skaudvilė,8:30 AM,5:00 PM,55.41667,22.61667
92,"Kunde, Parisian and Rutherford",9266 Merchant Junction,Arbaoua,9:30 AM,3:00 PM,34.9116774,-5.9145568
93,Brekke Group,5360 Hauk Trail,Le Mans,9:00 AM,1:00 PM,47.9956173,0.1924459
94,Wolf Group,658 Arrowood Drive,Werang,9:00 AM,3:00 PM,-8.5639937,122.6164409
95,Harber-Keeling,253 8th Street,Kiryū,8:30 AM,1:30 PM,36.4045915,139.2613339
96,Aufderhar-Kunze,30 Dawn Trail,Capatárida,9:00 AM,2:00 PM,11.171783,-70.620384
97,"Lindgren, Labadie and Jast",8 New Castle Plaza,Candelaria,9:30 AM,3:30 PM,4.5943745,-74.0740729
98,Gislason LLC,23 Barnett Way,Bento Gonçalves,8:30 AM,2:00 PM,-29.1667089,-51.5169861
99,Rath-Mann,55577 Dwight Hill,San Francisco,8:30 AM,3:30 PM,-16.4962793,-68.1372784
100,"Kling, Quigley and Halvorson",597 Melrose Alley,La Guama,9:00 AM,4:30 PM,14.888791,-87.9383822
101,Waters LLC,54276 Fair Oaks Terrace,Songgai,7:30 AM,4:30 PM,31.2303904,121.4737021
102,"Halvorson, Wyman and Wilderman",1 Hayes Pass,Tanjung Timur,9:30 AM,2:30 PM,3.2359747,98.6875659
103,Padberg Inc,7079 Randy Park,Kuteynykove,7:30 AM,1:30 PM,47.81227,38.28822
104,"Conroy, Spencer and Yundt",34 Schmedeman Trail,El Bálsamo,9:30 AM,3:30 PM,15.2708337,-87.8672509
105,White-Frami,521 Katie Pass,Perístasi,8:00 AM,4:00 PM,40.2740679,22.5416683
106,Gaylord Group,087 Meadow Valley Hill,Hampton,7:30 AM,4:30 PM,37.0279431,-76.3116235
107,Ritchie-Ratke,81 Sommers Park,Isla Pucú,8:00 AM,4:00 PM,-25.3088443,-56.9014072
108,Krajcik-Volkman,938 Schurz Drive,Cimanggu Wetan,8:00 AM,2:00 PM,-6.8128491,107.5087328
109,Goodwin-Stroman,1 Vahlen Avenue,Bocaiúva,8:30 AM,3:00 PM,-17.1113356,-43.8203315
110,Cartwright-Hettinger,08391 Monument Circle,Vale Boeiro,9:30 AM,3:00 PM,38.6037983,-9.1672878
111,"Denesik, Hammes and Runte",21 Bonner Terrace,L'viv,10:00 AM,3:30 PM,49.839683,24.029717
112,"Reichert, Klocko and Quigley",79582 Moose Place,Xiahong,9:30 AM,3:30 PM,36.730837,104.785208
113,Adams-Zieme,1751 Larry Park,Cisompet,7:30 AM,4:00 PM,-7.5625591,107.7873095
114,Mills-Friesen,55 Parkside Drive,Liugong,10:00 AM,5:00 PM,24.3154419,109.3656914
115,Stracke-Gerlach,9 Homewood Trail,Sukonolo Krajan,8:00 AM,3:00 PM,-8.1031,112.6167
116,"Pouros, Lynch and Jakubowski",8 Fallview Point,Panimbang,10:30 AM,4:00 PM,-6.5322356,105.652983
117,Bernier LLC,538 International Street,Katoro,9:00 AM,2:00 PM,-3.0040574,31.9274003
118,"Fadel, Yost and Anderson",014 Erie Alley,Boto,10:00 AM,1:00 PM,-7.6155876,110.7167165
119,"King, Leannon and Streich",36265 Maywood Court,Mpophomeni,8:30 AM,2:00 PM,-29.56225,30.18109
120,Bartell-Fisher,8 Magdeline Junction,Kuanping,9:30 AM,3:30 PM,31.882062,116.243408
121,Bernhard-Cassin,1 Coleman Lane,Sanyi,11:00 AM,3:00 PM,22.625636,114.038535
122,Miller Group,055 Kings Circle,Yunping,9:00 AM,3:30 PM,31.17495,86.812286
123,"Lesch, Shields and Hessel",82182 Stuart Point,Rembes,7:30 AM,1:00 PM,-7.2267854,110.5424021
124,Mohr Group,52224 Helena Center,Sucun,9:30 AM,4:00 PM,34.423878,110.947552
125,Howe-Reinger,88 Becker Alley,Panalanoy,11:00 AM,1:30 PM,11.25111,125.00639
126,Shanahan-Gibson,882 Cordelia Junction,Samal,10:00 AM,1:00 PM,14.6874444,120.9638841
127,D'Amore Group,80 Hudson Center,Griboyedov,9:30 AM,1:00 PM,40.1145846,44.2706023
128,Aufderhar-Schumm,903 Vermont Alley,Sogcho,10:30 AM,1:00 PM,38.2070148,128.5918489
129,Borer-Dare,282 Longview Road,Quinta,9:00 AM,2:30 PM,40.9515138,-8.5904113
130,"Boyle, Gerhold and Parisian",13504 Golf Course Alley,Kaédi,8:30 AM,4:00 PM,16.1535575,-13.5032081
131,Hoppe-Gaylord,47990 Artisan Street,Stavanger,9:00 AM,2:30 PM,58.9015864,5.7123282
132,Bashirian Group,72 Spenser Hill,Guogan,10:00 AM,2:30 PM,23.2878976,113.8374236
133,"Jaskolski, Tremblay and Moen",9729 Orin Trail,Houzhen,7:30 AM,2:30 PM,30.742803,120.48806
134,"McCullough, Bode and Wolff",96 Heffernan Park,Khāsh,7:30 AM,2:30 PM,31.528143,62.7897132
135,Walker-Greenfelder,25 Transport Center,Kertasari,8:00 AM,3:30 PM,-7.2760371,107.6925674
136,Wyman-Metz,00 Eastlawn Lane,Sindangraja,7:00 AM,2:00 PM,-7.1919362,108.1754804
137,Klocko LLC,0301 Southridge Avenue,Iguatu,11:00 AM,1:30 PM,-24.6399084,-53.1426814
138,"Murray, Prosacco and Adams",794 Hayes Avenue,Río Blanquito,10:30 AM,3:00 PM,15.7309288,-87.8991514
139,"Osinski, Parisian and Green",99 Fulton Plaza,Río Cauto,10:00 AM,4:00 PM,20.5599652,-76.9095647
140,"Kulas, Kassulke and Tremblay",68 Holmberg Alley,Cahuacho,9:30 AM,2:00 PM,-15.5030873,-73.4797036
141,Cummerata Group,1 Mayer Parkway,Sindou,7:00 AM,3:30 PM,10.6503878,-5.1692752
142,Auer and Sons,85438 Crownhardt Terrace,Kalapagenep,7:00 AM,5:00 PM,-7.7955645,108.291137
143,Cummerata Inc,17 Arizona Crossing,Babushkin,11:00 AM,3:30 PM,61.6724707,40.2145002
144,Buckridge Group,5705 Dunning Terrace,Maunuri,10:30 AM,4:00 PM,-8.8899,121.2806
145,"Bernhard, Rempel and Hoeger",76730 Scott Lane,Laï,8:30 AM,1:30 PM,9.3982268,16.3051766
146,Waters and Sons,9 Kinsman Point,Gesikan,8:00 AM,5:00 PM,-7.7090989,109.6922026
147,Gutkowski-Schinner,8800 Randy Junction,Moulay Yacoub,7:30 AM,4:00 PM,34.0874479,-5.1784019
148,Braun Group,359 Butternut Pass,San Eduardo,9:30 AM,4:30 PM,14.7247931,121.0315758
149,Nitzsche-Leannon,03717 Main Point,Kolomyagi,9:30 AM,2:30 PM,60.0142824,30.299306
150,"Hammes, Stroman and Nienow",41002 Graedel Court,Xin’e,10:30 AM,4:30 PM,49.16291,127.98658
151,"Bernhard, Thiel and Howe",76463 Spohn Parkway,Biggar,10:30 AM,3:30 PM,52.0668,-108.00135
152,Treutel Group,1 Northwestern Park,Bogoroditsk,11:00 AM,1:00 PM,53.771559,38.1392615
153,Mohr Inc,6 Bay Crossing,Sugihan,11:00 AM,4:00 PM,-6.8312395,111.95523
154,Zieme LLC,9 Caliangt Trail,Łąka Prudnicka,10:30 AM,4:30 PM,50.4868505,17.5957117
155,Schultz-Lueilwitz,08055 Anthes Road,Linxi,8:00 AM,3:30 PM,43.61812,118.05545
156,"Rath, Franecki and Gottlieb",785 Melby Pass,Goshogawara,11:00 AM,3:00 PM,40.8276499,140.4491245
157,"Dietrich, Streich and Smith",96 Hermina Place,Fubei,7:30 AM,4:30 PM,28.002198,116.299392
158,Gaylord Inc,51817 Montana Plaza,Cikomara,8:30 AM,2:00 PM,-6.5683,106.4116
159,Rice-Spencer,620 Montana Drive,Putatbasiun,9:30 AM,1:00 PM,-2.41144,115.5429427
160,Prosacco-Simonis,889 3rd Drive,Dongji,8:00 AM,4:30 PM,30.190334,122.689752
161,Torp-Cormier,99023 Harbort Pass,Batticaloa,8:30 AM,5:00 PM,7.7247058,81.7131828
162,"McLaughlin, Williamson and Dach",590 Veith Center,Jiangqiao,7:00 AM,2:30 PM,31.238854,121.331694
163,Romaguera and Sons,08 Tomscot Circle,Opinogóra Górna,9:30 AM,2:00 PM,52.9002738,20.7462079
164,Roberts LLC,44583 Summer Ridge Pass,Hegarsari,9:30 AM,5:00 PM,-7.3878712,108.5492848
165,Jaskolski and Sons,5 Sutteridge Avenue,Yanglinqiao,7:30 AM,1:00 PM,30.745232,110.770017
166,Parker LLC,8078 Merchant Lane,Guangchen,8:00 AM,1:30 PM,30.750211,121.134569
167,"Kohler, Zulauf and Powlowski",31898 Maple Point,Jimaguayú,10:00 AM,3:30 PM,21.241735,-77.8267218
168,Bartell-Walsh,7441 Amoth Parkway,Sokolovo,8:00 AM,4:00 PM,57.104403,39.175735
169,Davis Group,25227 Fair Oaks Avenue,Nāgarpur,8:00 AM,1:00 PM,24.0576707,89.8762377
170,Walker-Mante,0345 Talmadge Hill,Żyraków,7:00 AM,1:00 PM,50.0919002,21.3924958
171,Ondricka LLC,5911 Dwight Pass,Shitan,7:00 AM,3:30 PM,27.754532,112.723615
172,Bartell-Langosh,05 Hanover Junction,São Pedro,7:00 AM,3:30 PM,38.7930999,-9.3809443
173,"Graham, Roob and Greenholt",73616 Coolidge Junction,Shenavan,11:00 AM,2:30 PM,40.4832736,44.3852966
174,Windler-Koepp,91968 Russell Park,Wilkes Barre,8:00 AM,1:30 PM,41.2505888,-75.8520879
175,Funk-Wolff,8778 Loeprich Point,Tucaní,8:00 AM,3:00 PM,8.9679001,-71.2740573
176,"Leffler, Kunze and Gislason",4 Sage Lane,Gaozhou,8:00 AM,2:30 PM,21.918203,110.853299
177,"Schneider, Jacobi and Huels",1 Tennyson Drive,Kardhiq,9:30 AM,5:00 PM,40.124026,20.0285889
178,"Reynolds, Leffler and Cole",0 Fair Oaks Point,Zapod,8:30 AM,1:30 PM,42.0512556,20.5554375
179,Hudson LLC,58207 Northview Terrace,Val-d'Or,11:00 AM,4:00 PM,48.1041936,-77.7963772
180,"Lynch, Rodriguez and Langworth",614 Cottonwood Lane,Hongtu,9:00 AM,1:00 PM,44.181054,129.171996
181,"Ratke, Konopelski and Schiller",99749 Sundown Court,Margasana,10:30 AM,1:30 PM,-7.532337,109.1374653
182,Klein-O'Connell,5350 Boyd Drive,Mabai,8:00 AM,3:00 PM,23.546343,105.020249
183,Murazik-Jaskolski,3862 International Point,Ivouani,9:30 AM,4:30 PM,-11.388934,43.390991
184,Daugherty and Sons,23 Sutteridge Terrace,General Levalle,11:00 AM,4:30 PM,-34.6573647,-58.3626864
185,Heathcote and Sons,9 Stang Pass,Sirāhā,9:00 AM,3:30 PM,26.7957017,86.2970998
186,Grady-Tillman,570 Stoughton Drive,Tha Bo,9:30 AM,2:30 PM,17.8064459,102.5527505
187,O'Kon Group,68 Westerfield Alley,Lanxi,10:30 AM,1:30 PM,29.208918,119.460526
188,Schuppe-O'Conner,8 Blue Bill Park Alley,Thung Khru,9:00 AM,4:30 PM,13.6332855,100.4958678
189,"Wuckert, Turner and Harris",6711 Lakewood Gardens Street,Dongshe,8:30 AM,1:00 PM,23.701262,117.430061
190,"Heller, Wilderman and Durgan",8 Birchwood Junction,Xinjie,11:00 AM,4:30 PM,31.244331,121.3602832
191,Kris LLC,0729 Lawn Place,Del Valle,7:00 AM,5:00 PM,25.6564843,-100.3694401
192,Muller and Sons,15026 Grayhawk Circle,Srebrenica,9:00 AM,4:00 PM,44.1039762,19.2997218
193,"Dare, Pagac and Feil",2835 Buena Vista Hill,Pavlodar,8:00 AM,5:00 PM,52.2873032,76.9674023
194,Murray-Crooks,7030 Shelley Alley,Franca,10:00 AM,2:00 PM,-20.5393288,-47.4013437
195,Paucek Group,7 Towne Terrace,Fengli,9:30 AM,5:00 PM,38.8833,116.47424
196,Lakin-Wolf,194 Fairfield Road,Bairro dos Marinheiros,10:30 AM,4:30 PM,38.6002724,-9.0119332
197,"Aufderhar, Hickle and Hahn",125 Riverside Park,Yuxi,10:00 AM,3:30 PM,24.347324,102.527197
198,"Nolan, Adams and Hane",20626 Forest Run Place,Mailag,9:30 AM,5:00 PM,7.9855625,125.1375831
199,"Ondricka, Weimann and Rogahn",160 Vahlen Street,Canggou,10:00 AM,4:30 PM,36.87492,108.413764
200,Champlin-Crist,35 Express Court,Chigasaki,9:30 AM,2:00 PM,35.3372599,139.4046734
201,"Orn, Farrell and Kuvalis",17997 Morrow Crossing,La Francia,10:30 AM,4:30 PM,-34.5261401,-58.4973437
202,McLaughlin-Zemlak,39 Farwell Parkway,Faqīrwāli,7:30 AM,5:00 PM,29.5300365,72.9842682
203,Prosacco-Kassulke,8228 Ridgeview Road,Daga,7:00 AM,4:00 PM,27.0970034,89.8738987
204,Muller Inc,17925 Sunfield Point,Karangarjo,10:30 AM,3:00 PM,-6.7050629,111.6198661
205,Hackett-Hagenes,84 Sullivan Pass,Xiangshui,9:00 AM,2:00 PM,34.199479,119.578364
206,Lindgren Inc,11850 Lakewood Alley,Baiguan,7:00 AM,2:00 PM,38.405406,77.249413
207,Pagac-Maggio,716 Warbler Pass,Setonokalong,9:00 AM,1:00 PM,-8.0934,111.9629
208,"Leffler, Funk and Dicki",5 Carpenter Alley,Seattle,11:00 AM,4:00 PM,47.6288591,-122.3456919
209,"Dietrich, Murray and Weissnat",83 Laurel Lane,Le Mans,7:00 AM,1:00 PM,47.9956173,0.1924459
210,Treutel-Halvorson,0578 Corscot Parkway,Lhuentse,10:00 AM,2:30 PM,27.8264989,91.135302
211,"Robel, Weber and Bogisich",3 Thackeray Road,Valdemarsvik,7:30 AM,1:30 PM,58.2024514,16.6013625
212,"Rogahn, Dooley and Kunde",162 Helena Street,Kuala Bintang,9:00 AM,1:30 PM,4.6077979,97.0202754
213,Morar Inc,9149 Prairie Rose Street,Bené Beraq,11:00 AM,4:00 PM,32.084932,34.835226
214,Shanahan-Powlowski,4998 Maywood Crossing,Khartsyz’k,11:00 AM,4:00 PM,48.043204,38.1393965
215,Kihn-Graham,6371 Logan Pass,Ngrowo,10:30 AM,5:00 PM,-7.1525924,111.8971017
216,Ullrich Inc,2 Truax Trail,Daga,7:00 AM,3:00 PM,27.0970034,89.8738987
217,McCullough Group,12 Manitowish Junction,Ageoshimo,11:00 AM,4:30 PM,35.9673629,139.6162456
218,Mitchell Group,3 Lien Point,Sampagar,10:00 AM,4:00 PM,7.5129005,124.9562226
219,Walsh Group,55 Fallview Way,Stara Pazova,10:30 AM,1:30 PM,44.985613,20.1568773
220,Cole-Beatty,93345 Eastwood Pass,Longxi,7:30 AM,5:00 PM,35.00394,104.634983
221,Kutch Inc,5 Harper Avenue,Argalastí,7:00 AM,2:30 PM,39.2259226,23.2195437
222,"Rippin, Wunsch and Jerde",315 Comanche Pass,Tehrān,10:00 AM,3:00 PM,35.6891975,51.3889736
223,Stroman-Jenkins,2 Arrowood Street,Jenzan,11:00 AM,2:30 PM,36.2429169,128.2989526
224,Ankunding Group,3664 Fisk Hill,Nanzhihui,8:30 AM,2:30 PM,34.472679,107.36884
225,"Konopelski, Sauer and Franecki",6428 Eggendart Circle,Heping,10:00 AM,3:00 PM,24.44218,114.938684
226,Kovacek-Larkin,16564 David Pass,Ōnojō,10:30 AM,3:00 PM,34.8383901,137.0770574
227,Bogisich and Sons,9 Killdeer Alley,Cruzeiro do Oeste,7:00 AM,1:30 PM,-23.7834562,-53.0762805
228,Kiehn LLC,08602 Tony Road,Bodzanów,7:30 AM,5:00 PM,52.4957047,20.01446
229,"Auer, Ward and O'Hara",64886 Raven Point,Katumba,8:30 AM,2:30 PM,-9.2263237,33.6422932
230,Greenholt-VonRueden,42 Hermina Parkway,Saint-Brieuc,8:00 AM,3:30 PM,48.5116663,-2.7393345
231,"Wolf, Abbott and Zieme",96 Atwood Hill,Monte-Carlo,9:00 AM,1:00 PM,43.7400718,7.4266436
232,Pollich-Hartmann,4756 Namekagon Park,Nanguzhuang,10:00 AM,4:00 PM,32.320332,116.557208
233,"Haag, Hodkiewicz and Strosin",725 Loftsgordon Place,Tangpu,7:00 AM,1:00 PM,28.440223,114.993228
234,Kling-Kertzmann,51 Kedzie Lane,Barcelona,10:00 AM,3:30 PM,41.4378689,2.196618
235,Jones Inc,90632 Marcy Park,Corbeil-Essonnes,9:30 AM,3:00 PM,48.5975789,2.4626489
236,Farrell-Hudson,32095 Mosinee Circle,Zhujiang,7:30 AM,1:00 PM,22.7694444,113.6216667
237,Dickens and Sons,4 Dapin Parkway,Ma’an,10:00 AM,1:30 PM,30.145729,120.589457
238,Lindgren LLC,88890 Old Gate Hill,Al Fayyūm,10:30 AM,4:30 PM,29.3084021,30.8428497
239,Hane Inc,69817 Briar Crest Drive,Douane,10:30 AM,1:00 PM,36.795091,10.184999
240,Green-Windler,0434 Victoria Pass,Praia da Barra,11:00 AM,3:30 PM,40.638059,-8.7470806
241,Murazik Inc,8 Pleasure Way,Trzcinica,10:00 AM,5:00 PM,51.1672774,18.0050053
242,"Armstrong, Ferry and Graham",61452 Del Sol Pass,Padre Bernardo,10:30 AM,4:30 PM,-15.158624,-48.2802925
243,"O'Reilly, Swift and Funk",6 Towne Alley,Tulungagung,8:00 AM,4:30 PM,-8.091221,111.9641728
244,O'Hara LLC,20644 Dovetail Drive,Geita,7:00 AM,2:00 PM,-2.8850378,32.2313539
245,"Deckow, Labadie and Koelpin",741 Hintze Pass,London,9:30 AM,2:00 PM,37.13,-84.08
246,Stanton-Ward,2474 Huxley Drive,Namboongan,9:00 AM,4:00 PM,16.2932198,120.3806591
247,Mosciski Group,53960 Ryan Point,Cardona,10:30 AM,2:30 PM,14.5716986,121.026941
248,Corwin-Dickens,41489 Bunker Hill Junction,Langgapayung,10:00 AM,3:00 PM,1.6699249,99.9688636
249,"Littel, Jenkins and Hartmann",619 Rutledge Park,Chengzhai,11:00 AM,5:00 PM,37.114895,114.839318
250,Hane-Deckow,367 Manufacturers Road,Saint-Flour,7:30 AM,1:30 PM,45.1238884,2.9802744
251,"Marvin, Rath and Kirlin",9033 Burrows Way,Dhromolaxia,7:30 AM,4:30 PM,34.8813447,33.5895956
252,Spencer and Sons,53 Texas Center,Pomar,8:30 AM,1:00 PM,42.046011,-8.4825685
253,Ritchie-Hodkiewicz,6 Reindahl Terrace,Broby,11:00 AM,4:30 PM,60.2705509,24.9883305
254,Hartmann-Klein,52930 Commercial Place,Kotatengah,9:30 AM,2:30 PM,0.561734,123.0535774
255,Bartoletti Group,46511 Maryland Road,As Sawdā,9:00 AM,3:30 PM,34.9810045,35.9438027
256,"Pouros, Smith and Kautzer",29220 Russell Hill,Ngulahan,7:30 AM,2:30 PM,-6.7659245,111.5259628
257,Johnson LLC,2490 Blue Bill Park Junction,Annau,7:00 AM,4:00 PM,37.9059243,58.4972596
258,"Bauch, Stracke and Wilderman",44273 Claremont Hill,Garoua Boulaï,7:00 AM,3:30 PM,5.8901373,14.5480484
259,"Haley, Okuneva and Dibbert",3 Clyde Gallagher Street,Lallayug,7:30 AM,2:30 PM,17.7127202,121.4424473
260,"Kessler, Hamill and Boehm",418 Little Fleur Hill,Moppo,8:30 AM,4:00 PM,34.8118351,126.3921664
261,Schiller-Christiansen,7 Lunder Junction,Wola Rębkowska,11:00 AM,1:00 PM,51.8925608,21.4872815
262,"Sauer, Bayer and McClure",975 North Junction,Kalipare,10:30 AM,2:00 PM,-8.2105982,112.4708685
263,Weber-Hudson,025 Maywood Avenue,Neiva,7:30 AM,2:00 PM,2.9344837,-75.2809001
264,Dooley Inc,42358 Bluejay Way,Datong,10:00 AM,4:30 PM,40.076762,113.300129
265,Kshlerin LLC,83 Nova Place,Bandaran,11:00 AM,3:00 PM,-0.4836064,117.1544163
266,"Wyman, Hilll and Stroman",16 Gale Crossing,Nueva Loja,7:30 AM,5:00 PM,0.0851034,-76.8940156
267,"Hintz, Metz and Gislason",9654 Delaware Circle,Ninove,9:30 AM,3:00 PM,50.8441986,3.9438609
268,Abshire Group,6 Mayfield Park,Gaopai,10:00 AM,3:30 PM,25.487867,115.614437
269,"Schimmel, Medhurst and Strosin",21 Bellgrove Court,Kathmandu,9:30 AM,2:30 PM,27.7172453,85.3239605
270,Koelpin and Sons,842 Moland Street,Pyshchug,10:00 AM,2:30 PM,58.8882592,45.709456
271,Heidenreich and Sons,96705 Dawn Way,Hengyang,7:30 AM,5:00 PM,26.893368,112.572018
272,Kessler Group,50220 Talisman Road,Situsari,7:30 AM,3:00 PM,-7.258661,107.7710234
273,Wehner Group,95879 Badeau Junction,Oklahoma City,10:30 AM,5:00 PM,35.4318343,-97.4922407
274,Smith-Gutkowski,8 Welch Terrace,Rouen,9:00 AM,1:00 PM,49.4378273,1.0974675
275,Grant Group,2 Westerfield Place,Şafwá,7:30 AM,2:00 PM,26.6274775,49.9161886
276,"Wolff, Mosciski and Langworth",7 Veith Way,Lopatyn,8:00 AM,2:30 PM,50.2220773,24.8459624
277,Jones Group,17 Anthes Pass,Svetlyy Yar,9:30 AM,3:30 PM,48.4790559,44.7808312
278,"Schuppe, Mitchell and Miller",4 Golf View Plaza,Hujra,7:00 AM,4:30 PM,34.1596834,72.2333024
279,"Fritsch, Wilkinson and Predovic",3 Bluejay Park,Sukamulya,11:00 AM,3:30 PM,-6.1583904,106.4288088
280,Wyman LLC,85 Morrow Crossing,Jutiapa,7:30 AM,1:00 PM,14.2926501,-89.8991742
281,"Carroll, Crona and Stroman",7 Derek Lane,Spárti,9:00 AM,1:00 PM,37.074461,22.430264
282,Maggio-White,8 Bartillon Terrace,Minshan,11:00 AM,5:00 PM,30.6474812,104.0662289
283,Douglas Inc,5 Northfield Road,Tominian,10:00 AM,3:00 PM,13.2857271,-4.5908196
284,"Sauer, Kunze and Donnelly",7541 Washington Plaza,Jiguaní,10:30 AM,4:00 PM,20.3650844,-76.4302771
285,McLaughlin and Sons,77982 Sommers Trail,Magistral’nyy,7:30 AM,1:00 PM,56.166667,107.433333
286,Pollich-Bogisich,00098 Grasskamp Street,Hengshan,10:30 AM,3:00 PM,39.672791,113.732809
287,Cole-Kreiger,2077 Oriole Avenue,Viga,9:30 AM,2:00 PM,13.869601,124.3090475
288,"Schimmel, Tillman and Altenwerth",7 Birchwood Drive,Ilinden,8:30 AM,3:00 PM,41.99427,21.574625
289,Mitchell LLC,37250 Westend Trail,Vällingby,7:00 AM,1:00 PM,59.3639237,17.8769444
290,Kuhn-Walter,22 Melody Drive,Balogo,7:00 AM,5:00 PM,13.8811133,123.6886104
291,Schneider LLC,17 Main Plaza,Koh Tao,10:30 AM,2:30 PM,10.1096551,99.822979
292,Deckow and Sons,64558 Carpenter Place,Yongfeng,9:00 AM,2:00 PM,27.318852,115.444319
293,Langosh-Zemlak,28 Lotheville Road,Guarulhos,8:30 AM,5:00 PM,-23.4543148,-46.5336521
294,"Walter, Mitchell and Nienow",997 Farwell Avenue,Hujiagou,8:30 AM,1:30 PM,35.591349,108.104291
295,Kassulke Inc,1 Commercial Court,Khursā,9:30 AM,3:00 PM,31.440961,34.99744
296,"Aufderhar, Metz and Farrell",618 Independence Crossing,Wiang Nuea,7:30 AM,3:00 PM,19.9252706,99.8625116
297,Price-Hintz,4 Autumn Leaf Road,Sanxi,10:30 AM,5:00 PM,37.2425649,111.8568586
298,"Rolfson, Fadel and O'Kon",080 New Castle Trail,Agua Buena,8:00 AM,4:30 PM,7.8357065,-80.3964824
299,"Kutch, Hodkiewicz and Lemke",9 Warbler Pass,Sungai Nyamuk,11:00 AM,2:30 PM,4.1175121,117.8663075
300,Dibbert-Bernier,4509 Iowa Hill,Lenningen,10:00 AM,4:00 PM,49.6005751,6.3670151
301,"Paucek, White and Krajcik",1053 Atwood Court,Sintra,9:00 AM,4:30 PM,38.7993886,-9.3855593
302,"Hessel, Bode and Howell",5 Mesta Lane,Mijiang,10:30 AM,2:30 PM,26.855047,100.22775
303,Smith-Moen,70647 Dunning Pass,Ponte,7:30 AM,1:00 PM,39.5421345,-118.5736924
304,"Schamberger, D'Amore and Leuschke",0347 Service Place,Rudong,7:30 AM,3:30 PM,32.331765,121.185201
305,Dach-Ernser,6 Brown Lane,Yingchun,7:30 AM,3:00 PM,44.9829,128.720857
306,"Hickle, O'Keefe and Hudson",72 Monterey Pass,Al Khafsah,8:00 AM,4:00 PM,36.2308144,38.0181686
307,Raynor-Gerlach,57761 Donald Parkway,Ebute Ikorodu,10:00 AM,1:00 PM,6.5959532,3.5033042
308,Rempel and Sons,673 Sherman Place,Zhizhong,8:00 AM,1:00 PM,40.087301,116.31098
309,Lang-Fritsch,6207 Shelley Parkway,Zhenyuan,11:00 AM,2:30 PM,27.049109,108.42969
310,Langworth-Veum,12 Memorial Road,Huaxian,10:00 AM,1:30 PM,35.575417,114.519311
311,Paucek Inc,16792 Lawn Park,Venezuela,11:00 AM,2:30 PM,21.7425323,-78.7872876
312,Schaefer-Hermiston,240 Clemons Junction,Altay,11:00 AM,5:00 PM,47.827308,88.131842
313,"Kessler, Cormier and Nicolas",7410 Alpine Alley,Sedinginan,8:00 AM,5:00 PM,1.5594449,101.0146187
314,Leuschke-Corwin,621 Spenser Terrace,Blyznyuky,10:00 AM,3:30 PM,48.8568191,36.5499896
315,Bruen-Batz,7 Park Meadow Court,Huaibei,10:00 AM,4:00 PM,33.955844,116.798265
316,Rice LLC,6 Moulton Court,Tân Châu,8:30 AM,4:30 PM,10.8026827,105.1960795
317,Flatley LLC,78426 Hooker Plaza,Taimaman,11:00 AM,4:30 PM,-9.8076,123.9023
318,Sipes Inc,613 Homewood Street,Koslan,11:00 AM,3:00 PM,63.4529778,48.8833546
319,"Satterfield, Heidenreich and O'Keefe",3022 Brown Drive,Bertoua,10:00 AM,3:00 PM,4.5791946,13.6767958
320,Barton-Jaskolski,696 Londonderry Place,Kranuan,8:30 AM,1:30 PM,16.6036472,103.0472164
321,Lynch and Sons,815 Dorton Road,Manisi,8:30 AM,3:30 PM,35.919651,103.845271
322,Kassulke-Watsica,309 Vidon Street,Kota Kinabalu,10:00 AM,1:00 PM,5.952775,116.05657
323,"Berge, Wisoky and Marquardt",91 Forest Dale Hill,Matatiele,8:00 AM,5:00 PM,-30.2932904,28.7693554
324,Hane Inc,3 Little Fleur Pass,Estacion,7:30 AM,4:00 PM,14.5493917,121.0125865
325,Barton Group,24 Fairview Trail,Mardā,8:30 AM,2:00 PM,32.114217,35.195851
326,Denesik and Sons,411 3rd Circle,Novopokrovka,11:00 AM,4:30 PM,45.8512879,134.49807
327,Kub and Sons,06152 Chive Street,Atlasovo,10:30 AM,3:00 PM,55.6065,159.64266
328,Parker-Rodriguez,462 Nobel Terrace,Inhumas,7:30 AM,1:00 PM,-16.3062209,-49.4872858
329,Fahey-Gottlieb,04730 Crescent Oaks Point,Sukadana,9:00 AM,2:30 PM,-1.2468663,110.0926112
330,"Lynch, Flatley and Larkin",69 Kropf Lane,Timashëvsk,10:00 AM,4:00 PM,45.5946392,38.956757
331,Mante-Legros,30 Troy Circle,Vinha,7:00 AM,2:00 PM,41.4292615,-8.1757379
332,"Connelly, Wolff and Runolfsson",6 Anthes Park,Sanli,9:30 AM,4:30 PM,24.84662,116.746096
333,"Cummings, Franecki and Halvorson",960 Blackbird Avenue,Goya,9:00 AM,5:00 PM,-34.3048508,-58.7739249
334,"Balistreri, Krajcik and Carroll",9 Bultman Drive,Gatbo,7:00 AM,1:30 PM,13.5709049,123.3833727
335,Torphy-Gaylord,1693 Wayridge Point,Galván,8:30 AM,3:30 PM,18.4748726,-69.9002083
336,Zboncak Inc,22467 Everett Junction,Rungis,8:00 AM,2:30 PM,48.7700185,2.3508225
337,"Brakus, Huels and Ullrich",35030 Stuart Point,Wangjiahe,8:00 AM,5:00 PM,31.282291,116.196278
338,Shields-Pouros,72 Clarendon Crossing,Villeneuve-la-Garenne,8:00 AM,1:30 PM,48.9268168,2.3306851
339,Leannon and Sons,50 David Court,Aldeias de Cima,7:30 AM,2:00 PM,41.3269373,-8.570312
340,"Hudson, Shields and Kohler",65 Corben Center,Mezhevoy,7:00 AM,2:00 PM,55.1662846,58.7926322
341,Hodkiewicz-Douglas,777 Bartelt Court,Kalangala,11:00 AM,2:30 PM,-0.3208374,32.2937428
342,"Ryan, Turcotte and Homenick",56822 Jenifer Court,Marseille,9:00 AM,5:00 PM,43.7441795,2.511999
343,Kiehn LLC,98 Merry Junction,La Libertad,11:00 AM,1:30 PM,-2.2306406,-80.9001863
344,Buckridge-Franecki,7 Pine View Court,Kebon,8:00 AM,4:30 PM,-6.183459,106.7647475
345,"Simonis, Herman and Brown",7 Bonner Court,Couva,10:00 AM,4:00 PM,10.4320215,-61.4493842
346,"Gerhold, Erdman and Stark",627 Hooker Park,Daxing,7:30 AM,2:30 PM,39.726929,116.341395
347,Hodkiewicz and Sons,8 Boyd Lane,Norak,7:00 AM,4:30 PM,38.3833041,69.2698737
348,Mayert-Dooley,3364 Del Mar Terrace,Czerwieńsk,8:00 AM,1:30 PM,52.0130334,15.4233905
349,Borer LLC,531 Swallow Junction,Kapakabisa,9:30 AM,1:00 PM,-9.7219,119.2998
350,Denesik-Johnson,8 3rd Place,Chenji,10:30 AM,1:00 PM,25.2747395,110.2979995
351,Jaskolski Inc,7259 Elgar Parkway,Lyamino,7:00 AM,2:00 PM,58.295323,57.6968252
352,Macejkovic-Hartmann,6410 Hovde Place,Qiawan,8:30 AM,1:00 PM,27.2711,116.580186
353,Dooley-Roberts,971 Dovetail Court,Wróblew,10:30 AM,3:00 PM,51.612047,18.615044
354,Gulgowski-Cremin,84651 Upham Center,Rodniki,8:30 AM,2:00 PM,57.1068191,41.7340876
355,Kovacek-Osinski,5 Michigan Terrace,Nankeng,9:00 AM,1:00 PM,32.060255,118.796877
356,Ledner LLC,232 Golf Center,Richmond,10:30 AM,1:30 PM,-31.3644769,23.9179589
357,Hauck Group,03 Rowland Place,Ibiporã,7:30 AM,2:30 PM,-23.2664186,-51.0527244
358,Corwin Inc,68 Almo Center,København,7:00 AM,2:30 PM,55.6782044,12.5720689
359,Nitzsche LLC,7 Gulseth Drive,Yangdian,8:30 AM,3:00 PM,31.270307,121.537613
360,"Macejkovic, Kunze and Towne",9 Orin Point,Nart,8:00 AM,1:00 PM,47.9195813,106.9211984
361,"Cremin, Predovic and Considine",27 Raven Lane,Bayan Hot,10:30 AM,2:30 PM,38.9424786,105.6553049
362,Reilly Inc,630 Schiller Terrace,Langkaplancar,9:30 AM,1:00 PM,-7.5363189,108.4038672
363,"Veum, Wuckert and Rodriguez",42393 Butternut Lane,Mutā Khān,9:30 AM,3:00 PM,33.24001,68.8663
364,Fay-Lindgren,891 Oxford Trail,Libice nad Cidlinou,9:00 AM,3:30 PM,50.1267742,15.1782064
365,Gibson Inc,161 Oak Valley Center,Pavlovka,8:30 AM,3:30 PM,52.6653765,49.7198694
366,"Marquardt, Hessel and Luettgen",3455 Hooker Avenue,Thívai,7:30 AM,1:00 PM,38.322579,23.3204309
367,Gaylord Group,604 Menomonie Road,Jiulongshan,8:00 AM,2:00 PM,39.893212,116.477516
368,Hilll-Schmidt,806 Pennsylvania Junction,Zhenzhushan,11:00 AM,2:30 PM,29.185721,117.468181
369,Lemke LLC,64684 Portage Center,Horred,10:30 AM,1:30 PM,57.3550131,12.4765885
370,Fadel Group,33 Northwestern Parkway,Keleng,8:00 AM,3:30 PM,-7.590458,109.1077389
371,"Zboncak, Mertz and Lakin",01478 Sundown Road,Saint-Jouan-des-Guérets,7:30 AM,3:00 PM,48.6011478,-1.9817089
372,Champlin-Sporer,8400 Manitowish Junction,Petřvald,10:30 AM,4:30 PM,49.8309961,18.3894128
373,"Cormier, Weber and Rowe",62725 Bellgrove Road,Coronel Fabriciano,10:30 AM,2:00 PM,-19.5189968,-42.628205
374,"Ruecker, Hodkiewicz and Wuckert",28930 Schiller Lane,Pamplona/Iruña,8:00 AM,3:00 PM,42.8038334,-1.6894332
375,Casper-Mante,87 Cottonwood Point,Sozopol,7:30 AM,1:00 PM,42.4099129,27.7009454
376,Pouros-Beahan,807 Arizona Crossing,Barlinek,10:30 AM,1:00 PM,52.99444,15.21918
377,Gusikowski-Murray,0 Hansons Court,Itabaiana,10:00 AM,3:30 PM,-10.6872332,-37.4329352
378,Pacocha and Sons,4921 Cherokee Crossing,Ouro Branco,10:00 AM,1:30 PM,-6.6760711,-36.9326095
379,Harvey Group,853 Mariners Cove Junction,Sult,10:30 AM,5:00 PM,40.88472,20.09944
380,"Senger, King and Bashirian",0909 Arizona Plaza,Masons Bay,7:00 AM,2:30 PM,22.5408317,-73.8948295
381,Heidenreich-Boyer,746 Anderson Court,Miaoxi,11:00 AM,4:30 PM,30.779444,120.00922
382,"Douglas, Terry and Stehr",1 Commercial Crossing,Citeureup,10:30 AM,2:00 PM,-6.4933318,106.8809319
383,Hirthe-Dickens,20357 Manitowish Parkway,Jangkat,11:00 AM,3:30 PM,-2.5252502,101.7523854
384,"McGlynn, Douglas and Runte",70 Aberg Avenue,Gangmian,7:00 AM,1:00 PM,23.438818,112.018204
385,Volkman Inc,03 Brown Pass,Llano Largo,7:30 AM,3:30 PM,7.9076232,-80.4256976
386,Ruecker LLC,0550 Prairieview Trail,Harper,8:30 AM,3:00 PM,4.3759676,-7.7009416
387,Tillman Group,0 Grim Point,San Carlos,9:30 AM,3:30 PM,8.797145,-75.698571
388,Lubowitz-Simonis,753 Roth Circle,Barayong,7:00 AM,4:00 PM,13.6361135,123.1924955
389,"Greenholt, Miller and Russel",00641 Arrowood Drive,Bingawan,11:00 AM,5:00 PM,11.2328036,122.5666402
390,Dietrich-Wehner,26097 Twin Pines Lane,San Isidro,7:30 AM,2:30 PM,9.939624,126.065213
391,"Predovic, Fritsch and Adams",1666 Oak Valley Avenue,Orléans,10:30 AM,3:00 PM,47.3591366,2.8002946
392,"Spinka, Brekke and Roob",738 Brentwood Plaza,Mbanza Congo,9:30 AM,1:30 PM,-6.2694214,14.2337805
393,"Howell, Zulauf and Greenholt",8 Dorton Street,Serra de Santa Marinha,9:30 AM,5:00 PM,40.1941227,-8.8629472
394,"Rogahn, Haley and Ferry",550 Fieldstone Road,Phatthalung,9:00 AM,5:00 PM,7.193611,100.592145
395,Ferry and Sons,5 Old Shore Avenue,Atins,7:30 AM,4:30 PM,-2.5695714,-42.7399195
396,Beahan and Sons,333 Straubel Hill,Liushikou,8:30 AM,4:30 PM,30.847047,116.363101
397,Kshlerin LLC,66 Golf Course Hill,Oakland,10:00 AM,1:30 PM,37.8336281,-122.2029832
398,"Price, Herzog and Boyer",5 Eastwood Crossing,San Andros,7:30 AM,4:00 PM,25.0522614,-78.0430817
399,Pouros and Sons,1 Melrose Circle,Yuncheng,7:00 AM,1:00 PM,35.026516,111.00746
400,Volkman Inc,15096 Loftsgordon Park,Hantsavichy,9:30 AM,3:00 PM,52.7634482,26.4275001
401,"Blick, Willms and Thompson",65269 Center Court,Novo-Peredelkino,9:30 AM,5:00 PM,55.6587901,37.3582146
402,Frami-Mosciski,74 Marcy Place,Jayapura,8:30 AM,1:00 PM,-2.5916025,140.6689995
403,Weimann Inc,0583 Northridge Place,Rawasan,9:00 AM,1:30 PM,-6.7905128,111.9671537
404,Hills-Mills,2847 Straubel Drive,Libertad,10:00 AM,3:30 PM,19.4779768,-99.1771001
405,Pfeffer and Sons,9 Vernon Hill,Sens,11:00 AM,3:00 PM,48.1903349,3.2995005
406,"Murphy, Johns and Bruen",06232 Kensington Street,Prakhon Chai,10:30 AM,3:00 PM,14.6014909,103.0933171
407,Runolfsdottir-Lynch,438 Utah Park,Gaoqiu,8:00 AM,4:30 PM,28.363388,117.853172
408,Kozey and Sons,6709 Cottonwood Drive,Huangdu,9:00 AM,1:30 PM,28.39571,107.752611
409,Harvey-Sawayn,1 Melvin Court,Zaragoza,10:00 AM,3:00 PM,14.5491865,121.0186949
410,"Ruecker, Hackett and Kovacek",055 Independence Street,Amānzī,9:30 AM,4:30 PM,30.210884,66.048012
411,Hamill LLC,97 Buhler Center,Samobor,9:30 AM,5:00 PM,45.8010928,15.7110481
412,Grimes and Sons,9 Hallows Street,Robīt,10:00 AM,2:30 PM,9.9932482,39.8964772
413,"Schumm, Lubowitz and Cole",083 Lien Street,Mbale,9:30 AM,4:00 PM,1.0784436,34.1810057
414,"Schroeder, Mueller and Bauch",59282 Pepper Wood Hill,Malindi,10:00 AM,2:00 PM,-3.2191864,40.1168906
415,Bartell and Sons,5804 Merrick Center,Krikil,8:30 AM,2:00 PM,-7.0648163,110.0434773
416,"Blanda, Dickinson and Schuster",99415 Valley Edge Drive,Dieppe,9:00 AM,4:30 PM,49.8683919,1.1433823
417,Barton Inc,81184 Moose Street,Yantian,7:30 AM,4:00 PM,22.556499,114.236875
418,Adams-Schoen,278 Ryan Center,Krajan Selatan,7:30 AM,3:00 PM,-7.3937214,111.4129003
419,Jones and Sons,92 Paget Alley,Zabrušany,9:30 AM,1:00 PM,50.6060858,13.7914633
420,Kemmer LLC,27046 Portage Trail,Satsumasendai,8:30 AM,4:30 PM,31.8484611,130.260344
421,"Sawayn, Stroman and Simonis",7489 Rieder Street,Shijie,10:30 AM,3:30 PM,23.09964,113.8131
422,Balistreri and Sons,5253 Tomscot Way,Newark,10:30 AM,3:00 PM,39.68,-75.75
423,Witting-Kutch,8817 Manitowish Trail,Bolian,10:00 AM,2:00 PM,23.961903,106.762807
424,Raynor-Gerhold,17051 Oriole Junction,Wangyi Zhendian,9:30 AM,3:00 PM,31.325748,113.393516
425,Donnelly Group,8 Melby Avenue,Santo Tomás,7:00 AM,4:30 PM,10.763286,-74.756499
426,Fadel Inc,0300 Burrows Street,Caleta Olivia,10:00 AM,1:30 PM,-32.9701344,-68.8462541
427,Yost-D'Amore,8584 Onsgard Avenue,Vitina,7:30 AM,1:00 PM,42.3221655,21.3589808
428,Ebert-Funk,920 Mcguire Park,Mata de São João,7:00 AM,4:30 PM,-12.5327517,-38.3001614
429,Reynolds Group,40053 Northport Parkway,Jiangti,11:00 AM,1:30 PM,27.0874564,114.9042208
430,"Parisian, D'Amore and Romaguera",41507 Scoville Terrace,Tarata,8:30 AM,1:30 PM,-17.4776078,-70.0339387
431,Lowe LLC,5533 Donald Parkway,Bintawan,10:30 AM,3:00 PM,16.5196395,121.1798821
432,"Mertz, Corkery and Spinka",24 Acker Trail,Kondrovo,10:00 AM,4:00 PM,54.80639,35.92778
433,Buckridge LLC,7517 Banding Terrace,Borås,8:30 AM,2:30 PM,57.7244811,12.9309989
434,Mohr-Lakin,041 Montana Crossing,Gaoling,11:00 AM,4:30 PM,34.534829,109.088297
435,Glover-Stark,60201 Calypso Terrace,Mujur,7:30 AM,4:30 PM,-8.7615563,116.3574136
436,Bashirian Inc,194 Jana Drive,San Pedro,8:30 AM,1:30 PM,19.2586779,-99.1075731
437,Turner-Bailey,32 Bonner Place,Ngulahan,10:00 AM,2:00 PM,-6.7659245,111.5259628
438,Ondricka-Rowe,6560 Schiller Avenue,Ti-n-Essako,10:00 AM,3:00 PM,18.44,2.49
439,"Ledner, Hand and Luettgen",60 Basil Circle,Avignon,8:00 AM,1:00 PM,47.5113895,1.820875
440,Cassin-Strosin,09 Schlimgen Avenue,Xichang,7:30 AM,1:30 PM,27.894504,102.264449
441,Lemke-Hilll,6554 5th Place,Imbituva,10:00 AM,1:30 PM,-25.2641605,-50.6378804
442,Leuschke Group,181 Dahle Avenue,Batán,10:30 AM,3:30 PM,10.0835154,-83.342893
443,Abbott LLC,2 Killdeer Trail,Hopetown,9:00 AM,1:30 PM,-26.1353484,28.2949405
444,Ward-Walter,0069 Porter Road,Baroh,10:30 AM,4:30 PM,5.246361,95.9872235
445,Ritchie LLC,66 6th Drive,Jasionów,7:30 AM,4:00 PM,49.65841,21.97678
446,Price Group,3 Corben Terrace,Bacelo,10:00 AM,1:00 PM,41.3121037,-8.1656088
447,"Hintz, Morissette and Douglas",224 Thierer Way,Punta Cana,9:00 AM,3:30 PM,18.8539206,-71.3009387
448,Connelly Inc,23 Northridge Place,Staropavlovskaya,7:30 AM,3:30 PM,43.8427177,43.6387314
449,Borer Inc,9329 Lerdahl Center,Menggusi,7:00 AM,3:00 PM,22.627308,88.433942
450,"Thompson, Larkin and Upton",1 Westend Drive,Padilla,9:00 AM,3:30 PM,-19.3088778,-64.3031372
451,Gislason-Dooley,0 Rutledge Lane,Bali,10:00 AM,3:30 PM,5.8874488,10.0191857
452,Klein-Hilpert,9176 Fairview Circle,Lysekil,9:00 AM,1:30 PM,58.3786073,11.4865869
453,"Bauch, Predovic and Terry",32 Monument Alley,Muang Sam Sip,11:00 AM,2:00 PM,15.5106977,104.7264617
454,Kunde-Krajcik,9 Claremont Court,Claver,11:00 AM,1:30 PM,9.541232,125.820626
455,Macejkovic Inc,88009 Schlimgen Alley,Zebrzydowice,8:00 AM,3:00 PM,49.8545281,18.6057328
456,"Hessel, Schroeder and Hagenes",1 Reindahl Way,Vittoriosa,10:30 AM,2:00 PM,35.89222,14.51833
457,Hegmann-Bayer,5 Delaware Trail,Skhodnya,8:00 AM,3:30 PM,55.9437901,37.315783
458,Witting-Stanton,712 Vernon Plaza,Neochórion,7:00 AM,4:30 PM,38.7,21.466667
459,O'Reilly Inc,9 Bobwhite Place,Bharatpur,9:30 AM,1:00 PM,27.6486636,84.4172666
460,"Langworth, Nikolaus and Hand",2 Ruskin Center,Gandrungmangu,9:00 AM,1:00 PM,-7.5067598,108.8432656
461,Boyer Inc,21 Kim Trail,Babakanbungur,11:00 AM,3:30 PM,-6.5554802,106.7246239
462,"Bayer, O'Kon and Corwin",24 Farwell Terrace,Oele,9:30 AM,2:00 PM,-8.781054,115.165807
463,"Hermann, Green and Macejkovic",56 Cordelia Pass,Ticrapo,7:30 AM,4:00 PM,-13.3833585,-75.4361391
464,"Fadel, Glover and Powlowski",5923 Tomscot Alley,Shūsh,8:30 AM,2:00 PM,32.1957948,48.254283
465,"Moore, Konopelski and Friesen",104 Vera Crossing,Öndörhoshuu,8:30 AM,1:30 PM,48,113.93333
466,Howell-Cruickshank,7 Vidon Park,Nam Som,9:30 AM,3:00 PM,17.7177253,102.1175404
467,Kuhlman-Harber,064 Montana Trail,Kraljevo,9:30 AM,3:30 PM,43.7238483,20.6872542
468,Koepp LLC,63669 Debra Circle,Lypova Dolyna,9:00 AM,1:30 PM,50.6162099,33.8468153
469,"Fisher, Koepp and Stoltenberg",5 Southridge Trail,Atbasar,7:30 AM,1:00 PM,51.8204945,68.3636926
470,"Johnston, Lind and Wolf",48 Hintze Place,San Andrés,8:00 AM,4:30 PM,8.6020718,-82.7247254
471,Reichert-Tromp,743 Loeprich Place,Garahan,10:00 AM,1:00 PM,-8.2156978,113.9001141
472,"Runolfsdottir, Blick and Gleason",0676 Corben Circle,Kortkeros,8:00 AM,3:00 PM,61.8171356,51.5568693
473,Miller and Sons,08246 Colorado Court,Sanjiang,8:30 AM,3:30 PM,25.783198,109.607675
474,Bashirian-Welch,726 Cordelia Plaza,Bi’r al ‘Abd,7:00 AM,2:00 PM,31.0147222,28.2477778
475,Jacobs-Luettgen,50203 Hauk Terrace,Staryy Cherek,11:00 AM,2:30 PM,43.47139,43.84694
476,Kuvalis-Crist,7 Butterfield Place,Taverny,9:00 AM,3:00 PM,49.0178185,2.2072155
477,Lebsack-Langosh,58 Ridgeview Pass,San Isidro,10:30 AM,1:30 PM,19.482042,-99.1985584
478,Romaguera and Sons,20722 Westport Lane,Mýto,7:00 AM,3:30 PM,49.794097,12.5783985
479,"Runte, Robel and Fisher",3 Thierer Trail,Lurut,8:00 AM,4:00 PM,-6.275266,106.7246947
480,Mueller Group,67604 Novick Drive,Bezerros,7:00 AM,5:00 PM,-8.2462635,-35.7198831
481,Terry LLC,7883 Badeau Trail,Dingle,10:30 AM,4:30 PM,10.9991938,122.6717828
482,Rodriguez Inc,2 Westerfield Terrace,Seredka,7:00 AM,2:30 PM,58.1420431,28.203342
483,"King, Collins and Yundt",5 Northview Plaza,Guocun,8:30 AM,1:30 PM,31.2570292,121.492796
484,Dietrich-Sporer,536 Reinke Alley,La Victoria,9:00 AM,3:00 PM,5.523663,-74.234611
485,Sawayn-Gaylord,9 Eliot Crossing,Adela,8:30 AM,5:00 PM,14.5994449,120.9990792
486,Stroman and Sons,038 Comanche Way,Shayu,9:00 AM,1:00 PM,30.240579,106.370479
487,Friesen-Osinski,983 Pleasure Court,Novovolyns’k,7:30 AM,1:00 PM,50.7371757,24.1658808
488,"Krajcik, Herman and Mertz",7 Bellgrove Junction,Rognedino,8:00 AM,2:00 PM,53.8037886,33.5628446
489,Simonis-Langworth,4 Cordelia Point,Fenkeng,9:00 AM,2:00 PM,22.410005,111.430057
490,Jaskolski and Sons,75 Monterey Way,Lyubimets,9:00 AM,1:00 PM,42.7723725,23.3143163
491,"Marquardt, Bins and Wiza",6817 Harper Park,Liuduzhai,9:30 AM,5:00 PM,27.356747,110.944708
492,Schoen-Quitzon,72858 Roxbury Avenue,Kijang,7:30 AM,1:30 PM,35.24417,129.21389
493,"Friesen, Swaniawski and Parker",2 Evergreen Avenue,Leipzig,9:00 AM,1:30 PM,51.3383504,12.3634475
494,"Wunsch, Ullrich and Kirlin",7470 Blackbird Plaza,Yongjiahe,11:00 AM,5:00 PM,32.203257,106.339791
495,Runolfsdottir-Herman,6 Express Court,Chengnan,11:00 AM,1:30 PM,29.270311,88.880492
496,Sauer LLC,99159 Little Fleur Parkway,Korczyna,9:00 AM,2:00 PM,49.7549498,21.8253619
497,"Rowe, Brown and Morar",8240 Randy Alley,Mor Laok,11:00 AM,2:30 PM,-7.22439,113.51508
498,Ritchie-Hessel,176 Washington Park,Jiaoshanhe,7:30 AM,1:30 PM,30.830898,120.92585
499,Reichel LLC,9 Hooker Center,Hultsfred,8:00 AM,1:30 PM,57.5334964,15.9897014
500,Hyatt Inc,51 Knutson Alley,Palaiochóri,10:30 AM,4:30 PM,40.4930573,23.6502521
501,"Brown, Becker and Morar",942 Almo Plaza,Hongdu,8:30 AM,4:00 PM,25.8749206,116.0386902
502,Olson Inc,3695 Maywood Parkway,Rizómilos,7:30 AM,3:00 PM,37.0038961,21.9202642
503,Greenholt-Von,0 Burning Wood Plaza,Las Flores,8:30 AM,4:00 PM,19.4198119,-99.0225628
504,Marks LLC,58995 Fairview Road,Bantacan,10:30 AM,2:00 PM,7.6115877,126.1255129
505,Ebert LLC,4512 Sunfield Circle,Moosomin,7:30 AM,4:00 PM,50.13332,-101.66766
506,Mosciski-Lehner,5 Huxley Drive,Vohipaho,7:00 AM,5:00 PM,-22.3539973,47.8402601
507,Fahey-Konopelski,55583 Reindahl Plaza,Sharīfābād,9:30 AM,1:00 PM,35.4245642,51.7862672
508,Wunsch LLC,865 Clyde Gallagher Way,Heku,9:00 AM,1:30 PM,28.178059,109.482752
509,Erdman-Kulas,60142 Jenna Court,Longueuil,7:30 AM,2:00 PM,45.4693392,-73.4848038
510,Cummerata-Lebsack,2 Banding Avenue,Piterka,10:30 AM,3:00 PM,50.6666667,47.4333333
511,Pagac-Harber,28 Oneill Way,Minnedosa,8:30 AM,4:00 PM,50.2477455,-99.8375158
512,Beier Group,937 Manitowish Parkway,Verkhniye Kigi,9:30 AM,3:00 PM,55.4120248,58.5983581
513,"Volkman, Padberg and Reinger",40 Manitowish Junction,Kryevidh,9:30 AM,2:00 PM,41.0918152,19.5315193
514,O'Reilly Inc,335 Wayridge Court,Korogan Timur,8:00 AM,1:30 PM,-6.9322,113.0284
515,"Stehr, Crooks and Hegmann",395 Luster Plaza,Masaguisi,9:30 AM,4:00 PM,12.7166672,121.3666687
516,Stark Group,857 Darwin Junction,Castres,9:00 AM,2:30 PM,43.7058177,2.1365748
517,Weber-Wisoky,0 Swallow Street,Bella Vista,11:00 AM,5:00 PM,18.4530602,-69.9474964
518,"Huels, Swift and Yost",6129 Northland Drive,Kimhae,9:00 AM,2:30 PM,35.2285451,128.8893517
519,Cormier-Lynch,2 Bobwhite Alley,Nevinnomyssk,11:00 AM,1:00 PM,44.6381341,41.9381568
520,"Greenfelder, Padberg and Rohan",6482 Montana Alley,Hương Sơn,8:00 AM,2:30 PM,18.5118006,105.2662931
521,"Satterfield, Miller and Mraz",08 Buena Vista Plaza,Fāqūs,9:30 AM,3:30 PM,30.7292723,31.7977797
522,Gorczany Inc,076 Haas Park,Gonzalo Pizarro,11:00 AM,4:00 PM,0.0162131,-77.3780201
523,Cronin and Sons,99537 Union Alley,Chapimarca,9:00 AM,5:00 PM,-13.97797,-73.063881
524,Schoen-Lindgren,59 Bunker Hill Crossing,Gonghe,10:30 AM,4:00 PM,36.284107,100.620031
525,Flatley-Hansen,78 Fieldstone Terrace,Stupsk,8:30 AM,1:30 PM,53.0226508,20.4361149
526,Jenkins Group,5640 Randy Point,Shixiang,8:00 AM,1:00 PM,30.3312397,120.1534039
527,Collier-O'Hara,281 Debs Park,Nukuoro,7:00 AM,1:00 PM,3.8458333,154.9416667
528,Bauch-O'Keefe,5980 Charing Cross Hill,Bolo,10:30 AM,2:00 PM,18.5344284,120.7961471
529,"Kemmer, Stark and Torphy",01 Lakewood Gardens Pass,Bobon,9:00 AM,3:00 PM,12.5200531,124.5372661
530,Balistreri-Jerde,37 Chinook Alley,Dordrecht,10:00 AM,5:00 PM,51.792865,4.6999899
531,Kovacek Inc,357 Sachtjen Drive,Kabardinka,11:00 AM,2:00 PM,44.6488775,37.9401099
532,Gusikowski-Leuschke,44283 Norway Maple Point,Siemiechów,7:00 AM,4:00 PM,49.8530897,20.9063169
533,Brakus-Kulas,3 Oak Hill,Baoyang,10:00 AM,3:00 PM,27.804365,120.738172
534,"Metz, Douglas and Weber",499 Carey Way,Novi Bilokorovychi,7:00 AM,2:00 PM,51.1134675,28.0490173
535,Rutherford Inc,37 Moose Court,Bom Jesus da Lapa,9:30 AM,4:00 PM,-13.2513786,-43.4112394
536,"Stehr, Metz and Thompson",0295 Spenser Drive,Uchimaru,8:30 AM,3:30 PM,39.7028389,141.1515091
537,"Morissette, Pfannerstill and Keebler",9530 Jenna Avenue,Aotou,7:00 AM,1:00 PM,40.657978,109.840313
538,Fahey-Schulist,49463 Spohn Plaza,Siliana,9:00 AM,3:00 PM,36.0887208,9.3645335
539,Kessler-Gusikowski,98 Buena Vista Terrace,Kotaagung,7:30 AM,4:30 PM,-5.4736254,104.6471221
540,Cassin-Botsford,61 Northwestern Hill,Zhili,8:00 AM,1:30 PM,39.914373,116.454205
541,Hilll Group,65 Carberry Way,Santa Bárbara de Padrões,7:00 AM,1:30 PM,37.6364006,-7.984789
542,MacGyver and Sons,46 Morning Circle,Quaraí,10:30 AM,2:00 PM,-30.3845133,-56.4488086
543,Tremblay LLC,131 Kingsford Lane,Lughaye,8:00 AM,2:30 PM,10.6852616,43.946063
544,"Jast, Bernhard and Cummerata",1 Onsgard Trail,Haikou,9:00 AM,4:30 PM,20.044412,110.198286
545,Kautzer Inc,28 Heath Avenue,Al Ḩazm,8:30 AM,2:30 PM,16.1672432,44.7791562
546,Stiedemann-Wilderman,21661 Sachtjen Junction,Donskoye,8:00 AM,1:30 PM,54.9295907,19.9482276
547,Champlin-Bartell,56 Northland Place,Changwon,7:00 AM,3:30 PM,35.2392644,128.655374
548,Conroy-MacGyver,0 Lukken Lane,Huanggong,9:30 AM,1:00 PM,30.453667,114.872199
549,Toy-Ledner,25 Thompson Way,Dushan,8:30 AM,4:30 PM,25.822132,107.545048
550,Lehner-Ernser,9729 Larry Trail,Chengjiang,9:30 AM,3:30 PM,24.674624,102.904318
551,Gottlieb-Marks,444 Merchant Park,Thiès Nones,11:00 AM,3:00 PM,14.7790314,-16.9638997
552,Oberbrunner-Mayer,5 Forster Court,Inta,7:00 AM,4:00 PM,54.9173747,73.4361761
553,O'Kon LLC,76 Grim Drive,Sumanding,7:00 AM,4:30 PM,-6.5640911,110.8642328
554,"Halvorson, Larkin and Dare",96 Annamark Plaza,Quma,7:00 AM,2:00 PM,33.467588,104.285114
555,"Dare, Lind and Corkery",26 Garrison Center,Baisha,7:30 AM,4:00 PM,26.641315,100.222545
556,Gorczany Inc,993 Kennedy Trail,Yangkang,10:00 AM,5:00 PM,28.888555,120.047651
557,Walsh Inc,85 Elka Drive,Loga,9:30 AM,5:00 PM,-7.400943,112.590061
558,"Olson, Medhurst and Huels",6551 Granby Court,Ymittos,7:00 AM,4:00 PM,37.9525906,23.7464528
559,Mosciski-Stamm,83 Hauk Court,Damiku,8:30 AM,1:00 PM,39.7968818,-74.9245946
560,"Muller, Mohr and Kohler",3383 Nova Junction,Wesoła,10:00 AM,1:30 PM,50.2235249,20.046495
561,Frami-Beatty,77 Prairieview Way,Sơn Tịnh,10:00 AM,2:00 PM,15.1860945,108.736337
562,DuBuque Inc,6932 Schurz Court,Krasne,7:00 AM,1:00 PM,48.9339587,23.1684533
563,"Weissnat, Schimmel and Satterfield",4650 Rusk Plaza,Qingshuitang,7:00 AM,2:00 PM,23.505032,110.454177
564,"Gottlieb, Friesen and Mosciski",7 Shelley Junction,Alor Setar,9:00 AM,1:30 PM,6.1244023,100.3674801
565,"Lang, Kuhn and Ryan",767 Kingsford Center,Benito Juarez,10:30 AM,5:00 PM,22.2016816,-97.8367954
566,Aufderhar-Langworth,3337 Chive Terrace,Chengdong,7:30 AM,1:00 PM,36.599744,101.803717
567,Jenkins-Ratke,33570 Charing Cross Point,Cibitung,9:30 AM,3:30 PM,-6.2335134,107.1071
568,Powlowski LLC,87825 Harper Drive,San Francisco,7:30 AM,1:00 PM,20.8965838,-105.4093552
569,Gislason Group,1113 Menomonie Park,Trompsburg,9:30 AM,2:00 PM,-30.0263293,25.7797078
570,Jacobson-Dietrich,26505 Basil Park,Pangatikan,8:00 AM,4:00 PM,-7.1824754,108.0272646
571,Lakin LLC,6 Bluejay Plaza,Lac-Brome,7:00 AM,1:00 PM,45.21678,-72.51581
572,Greenfelder-Crist,170 Hovde Plaza,Ban Phaeo,7:00 AM,3:30 PM,13.5924758,100.1031202
573,King LLC,70952 Prairie Rose Plaza,El Bagre,8:30 AM,1:30 PM,7.5522902,-74.6400432
574,"Beer, Feil and Monahan",68 Colorado Crossing,Jonkowo,7:30 AM,2:30 PM,53.8298337,20.275033
575,Treutel-Bartell,5 Charing Cross Parkway,Irará,10:00 AM,2:30 PM,-12.034087,-38.7577605
576,Weissnat-Miller,5752 Anderson Junction,Agbani,7:00 AM,4:30 PM,6.3049636,7.5626411
577,"Langosh, Langosh and Dare",9 Anthes Point,Estoril,9:00 AM,5:00 PM,38.7107263,-9.3975414
578,Rolfson-Bailey,49 Eastlawn Circle,Fengshan,8:00 AM,4:00 PM,24.546876,107.04219
579,Rodriguez-Morar,5175 Summerview Pass,Flers,7:00 AM,1:30 PM,48.7438842,-0.5692441
580,West-Schiller,2419 Goodland Parkway,Musashino,9:30 AM,3:00 PM,36.1336188,139.2101113
581,Rohan-Flatley,064 Thierer Pass,Raciążek,10:00 AM,5:00 PM,52.856485,18.8133859
582,Gibson-Osinski,888 Northland Parkway,El Águila,7:30 AM,1:30 PM,4.9428987,-76.0285737
583,Ledner-Pfeffer,9 Blaine Plaza,Jiushe,8:00 AM,1:30 PM,23.790902,114.946019
584,Kunde Inc,6413 Paget Place,Sridadi,10:30 AM,2:30 PM,-4.232717,104.5247463
585,"West, Gerlach and Mann",46762 Melody Road,Brongkah,10:00 AM,3:00 PM,-8.1141,111.7762
586,Homenick-Grimes,98 Dryden Parkway,Tegaldowo,10:30 AM,3:30 PM,-6.8695345,111.5170196
587,Powlowski Group,12 Anderson Lane,Werinama,10:00 AM,1:00 PM,-3.4233267,130.2271243
588,Altenwerth-Bergnaum,9 South Street,Agadez,10:00 AM,4:00 PM,16.9741689,7.986535
589,Blanda-Gulgowski,86663 Schmedeman Plaza,Daoxu,9:00 AM,3:00 PM,30.044164,120.772494
590,Ward-Ritchie,07 Sugar Way,Dayrūţ,10:00 AM,1:00 PM,27.5502358,30.8077635
591,Herzog-Mueller,80 American Ash Avenue,Embarcación,7:00 AM,3:30 PM,-41.1254857,-71.2485941
592,Little-Kessler,56968 Larry Parkway,Shīeli,9:00 AM,1:30 PM,44.1689119,66.7337284
593,Hickle-O'Hara,60636 Elmside Street,Si That,10:00 AM,5:00 PM,17.0187975,103.2432632
594,Braun-Nikolaus,8 Hayes Court,Laraos,11:00 AM,4:30 PM,-12.3483286,-75.7872919
595,Ratke LLC,67 Susan Way,Fresnes,10:30 AM,1:30 PM,48.759003,2.323941
596,Abbott-Mosciski,40099 Northridge Parkway,Samālūţ,7:30 AM,3:30 PM,28.297814,30.7116561
597,Streich-Dach,424 Emmet Point,Yuexi,7:30 AM,1:30 PM,30.849762,116.359692
598,Heller-Jenkins,189 Muir Hill,Donskoye,10:30 AM,2:00 PM,54.9295907,19.9482276
599,Lang-Kerluke,74 Valley Edge Court,Szamotuły,7:30 AM,2:00 PM,52.6116547,16.5779047
600,Brown Group,96358 Annamark Court,Muranovo,9:30 AM,2:30 PM,56.178249,37.902732
601,"Senger, Luettgen and Gorczany",574 Dawn Way,Martakert,7:30 AM,2:30 PM,40.211601,46.8237055
602,"Bayer, Waters and Marquardt",6001 Loeprich Point,Welibo,8:00 AM,2:30 PM,-9.7083227,119.3279386
603,"Kuvalis, Will and Borer",1135 Colorado Pass,Liwan,9:00 AM,4:00 PM,17.4792157,121.6180515
604,Dickinson-Hodkiewicz,24865 Towne Plaza,Villeurbanne,8:00 AM,2:00 PM,45.7646846,4.861724
605,Windler Inc,0474 Fremont Road,Ambohitseheno,7:30 AM,4:00 PM,-18.7602306,47.5620739
606,D'Amore-Mraz,1729 Meadow Vale Road,Uppsala,7:30 AM,1:30 PM,59.8646264,17.6912342
607,Thiel-Ratke,97253 Reindahl Court,Shengli,8:00 AM,1:00 PM,37.510549,118.325556
608,"Hickle, Hermiston and Bosco",94847 Granby Alley,Nilanapo,8:00 AM,3:00 PM,-8.370899,123.7014716
609,Mertz-Yost,84361 Cody Pass,Stockholm,11:00 AM,1:00 PM,47.0179158,-68.1430518
610,Schmeler LLC,8371 La Follette Lane,La Soledad,8:30 AM,3:30 PM,19.7267712,-101.1850967
611,"Littel, Russel and Nikolaus",84 Calypso Circle,Koton Karifi,8:30 AM,4:30 PM,8.1,6.8
612,McKenzie LLC,1754 Little Fleur Drive,Salamina,8:00 AM,1:00 PM,10.4911049,-74.794526
613,Legros-Harber,09298 Burning Wood Park,Lixiqiao,7:00 AM,1:00 PM,31.067673,121.567646
614,"Runolfsson, Renner and Halvorson",0176 Farmco Way,Si Narong,7:00 AM,4:30 PM,15.228683,104.8577489
615,"Terry, Gleason and Osinski",0 Melvin Terrace,Naran Bulag,10:00 AM,3:00 PM,43.516667,109.116667
616,Jacobs-King,84 West Way,Yangping,9:30 AM,1:30 PM,22.183206,112.305145
617,"Gutkowski, McKenzie and Olson",1 Northfield Alley,Al Qanāyāt,7:30 AM,5:00 PM,30.6183919,31.4620967
618,"Johnson, Hintz and Hahn",69492 Sage Place,Paiisa,10:00 AM,4:30 PM,13.9289816,121.3567739
619,Mohr-Bogan,54 Meadow Valley Crossing,Nizhniy Bestyakh,11:00 AM,2:30 PM,61.9639779,129.9131287
620,Williamson-McKenzie,62 Melody Park,Fufang,10:30 AM,3:30 PM,22.8811032,113.622578
621,Nader and Sons,25150 Tennessee Center,Llano de Piedra,11:00 AM,4:30 PM,7.6622793,-80.5632884
622,"Predovic, Bauch and Aufderhar",33 Mosinee Crossing,Riachos,10:00 AM,4:00 PM,39.4381452,-8.5116903
623,McClure-Kuhlman,3649 Sloan Pass,Wuqiao,7:00 AM,4:00 PM,37.627661,116.391507
624,Funk and Sons,771 Fairfield Crossing,Gorodishche,7:30 AM,2:30 PM,48.816388,44.4777899
625,Kessler and Sons,2718 Transport Way,Energeticheskiy,7:00 AM,1:30 PM,43.4259712,77.0216405
626,McGlynn-Koepp,9301 Butterfield Center,Nizhnyaya Maktama,11:00 AM,1:00 PM,54.8603009,52.4223979
627,"Hudson, Walker and Kuhn",667 Londonderry Trail,Tostado,8:30 AM,1:00 PM,-38.9472836,-68.1132357
628,"Brakus, Heathcote and Oberbrunner",09 Oriole Center,Maliiha,10:30 AM,1:00 PM,-9.5541709,119.0285355
629,Beer-Gleason,052 Merry Center,Lidong,10:30 AM,3:30 PM,39.9791423,117.0643296
630,"Mills, Ryan and Kerluke",93572 Laurel Alley,Lapa,7:30 AM,1:30 PM,-25.7691769,-49.718244
631,"Hintz, Wilderman and Watsica",494 Hudson Street,Yisuhe,9:00 AM,2:00 PM,27.77268,112.955638
632,"Hauck, Mosciski and Koelpin",3 Dexter Lane,Kanaya,7:00 AM,2:30 PM,38.1663943,140.3006201
633,Howell-Gottlieb,19 Sachtjen Road,Imaan,9:00 AM,4:00 PM,-6.9770845,112.4736874
634,Rowe LLC,9 Straubel Point,Sepulu,8:00 AM,2:00 PM,-6.8973394,112.9565196
635,"Cummings, Thiel and Bashirian",376 Center Circle,Houston,9:00 AM,4:30 PM,29.7322762,-95.3755461
636,"Gerlach, Thiel and Jast",3451 Amoth Parkway,Januszkowice,7:00 AM,2:00 PM,50.4466097,18.1077046
637,"Feest, Feil and Zulauf",42 Springs Alley,Taiping,11:00 AM,2:30 PM,53.3004898,-6.2634596
638,"Casper, Cassin and Glover",840 Trailsway Point,Ochakiv,8:00 AM,4:00 PM,46.6187667,31.5387942
639,Legros-Bosco,9102 Ilene Crossing,Yahotyn,8:00 AM,4:00 PM,50.2568193,31.781765
640,Toy-Will,20192 Tennyson Lane,Manadas,7:30 AM,2:00 PM,38.6347352,-28.0961737
641,Hermiston Inc,519 Springview Drive,Al Badārī,7:00 AM,2:00 PM,26.9915774,31.4155591
642,"Hane, Thiel and Monahan",03422 Bultman Drive,São Miguel,8:30 AM,4:00 PM,41.0489611,-8.5265537
643,Schulist-Hegmann,46 6th Point,Pingxi,9:00 AM,2:00 PM,25.0248314,121.7408654
644,"Cassin, Crona and West",606 Dennis Junction,Pengembur Dua,10:30 AM,4:00 PM,-8.8229999,116.2601315
645,"Runolfsson, Kertzmann and Macejkovic",5 Meadow Vale Junction,Cianorte,10:30 AM,1:00 PM,-23.701721,-52.6600232
646,Nitzsche-Hyatt,2 Ludington Road,Kavála,9:00 AM,4:00 PM,40.937607,24.412866
647,Ruecker and Sons,4 Del Mar Parkway,Bergen op Zoom,9:00 AM,1:00 PM,51.5004971,4.2864439
648,"Johnston, Feeney and McDermott",196 Gina Pass,Mabuhay,8:30 AM,5:00 PM,14.6440549,121.0286448
649,Gulgowski Group,9 Barnett Avenue,Domartang,8:30 AM,3:00 PM,30.93902,94.68908
650,"King, Lindgren and Bartell",73 Meadow Valley Place,Pukou,10:00 AM,2:30 PM,32.059093,118.627894
651,"Bechtelar, Beier and Schimmel",46367 Crescent Oaks Circle,Zouma,9:30 AM,4:30 PM,30.63166,114.040353
652,Willms-Haley,0 Springview Plaza,Kutampi,7:30 AM,2:30 PM,-8.7176937,115.5625434
653,"Flatley, Russel and Stehr",42018 Rigney Alley,Turar Ryskulov,9:30 AM,1:00 PM,42.5447407,70.3420209
654,Fritsch Inc,9 Del Sol Junction,Nesterov,7:30 AM,1:00 PM,54.5979325,22.6027073
655,Borer-Toy,821 Trailsway Way,Néa Péramos,7:30 AM,2:00 PM,40.8385582,24.3031958
656,"Hudson, Grimes and Pfeffer",00 Northland Park,Spétses,11:00 AM,1:30 PM,37.2625973,23.1322437
657,Roberts Inc,20 Iowa Place,Chita,7:00 AM,4:00 PM,53.9842593,124.0715933
658,Rippin Inc,11 Coolidge Trail,Changwon,10:00 AM,2:30 PM,35.2392644,128.655374
659,"Lakin, Kihn and Renner",02377 Menomonie Terrace,Bontang,7:00 AM,3:00 PM,0.120863,117.4800445
660,Leuschke LLC,195 Towne Terrace,Valvedditturai,7:30 AM,5:00 PM,9.7998986,80.1489188
661,"Gerlach, Spencer and Bayer",247 Randy Junction,Teupasenti,9:00 AM,2:30 PM,14.22584,-86.7139704
662,Paucek-Graham,7 Browning Terrace,Choropampa,9:00 AM,1:00 PM,-7.2863903,-78.5753117
663,"Ryan, Haag and Corwin",751 Autumn Leaf Place,San Antonio,10:30 AM,2:00 PM,29.422658,-98.4869905
664,Boyle Inc,24 Tony Parkway,Shajia’ao,11:00 AM,4:00 PM,28.90388,121.310873
665,"Johnston, Murazik and Jacobson",669 Pearson Terrace,Elvas,11:00 AM,4:00 PM,38.8802788,-7.1636637
666,Harvey Group,6 Blaine Way,Karasgede,10:00 AM,4:30 PM,-6.7152549,111.4246078
667,Mueller Inc,90 Anzinger Place,Lerum,11:00 AM,2:30 PM,57.7824551,12.2632093
668,Green-Reichert,2081 Basil Alley,Nyzhnya Krynka,8:30 AM,3:30 PM,48.1173081,38.1648822
669,Wilderman and Sons,95 American Center,Chernyakhovsk,8:00 AM,2:30 PM,54.6437754,21.780179
670,Moen-Blick,403 Continental Point,Mežica,10:00 AM,3:30 PM,46.5214145,14.8523952
671,"Luettgen, Bins and Padberg",8550 Pepper Wood Street,Pelem,7:00 AM,4:30 PM,-7.7607338,112.1698476
672,Olson-Collier,96 Kipling Plaza,Niigata-shi,7:30 AM,1:00 PM,37.9133273,139.0158281
673,McGlynn LLC,381 Golden Leaf Park,Locminé,7:30 AM,3:00 PM,47.8890778,-2.8357471
674,"Nicolas, Bashirian and Considine",6070 Pepper Wood Center,Sasovo,10:30 AM,4:30 PM,54.356424,41.9194126
675,DuBuque-Kuvalis,584 Heffernan Drive,Lincheng,8:00 AM,3:30 PM,37.444498,114.498761
676,Lang Group,688 Eagan Way,Āl Ma‘ūdah,9:30 AM,3:30 PM,14.211024,45.3868766
677,"Willms, Schroeder and Wilkinson",2923 Summerview Crossing,Troitskaya,7:30 AM,3:00 PM,43.3045595,44.9887945
678,Lowe-Reynolds,36844 Kensington Way,Langtad,7:00 AM,1:30 PM,10.1834676,123.7325652
679,Windler Group,0 Wayridge Park,Mamboma,7:00 AM,3:30 PM,7.833333,-11.666667
680,"O'Kon, Rodriguez and Will",48 Helena Place,Curitiba,8:00 AM,4:30 PM,-25.5096271,-49.2254535
681,"McLaughlin, O'Keefe and Hermiston",681 Maryland Crossing,Tidaholm,9:30 AM,5:00 PM,57.9168381,13.8752069
682,"Mills, Schroeder and Frami",19648 Acker Trail,Galle,10:00 AM,2:00 PM,6.0481918,80.2153998
683,"Heaney, Bergnaum and Langworth",37 Graceland Way,Miringa,7:00 AM,2:00 PM,10.7187596,12.1404037
684,"Goyette, Rohan and Bechtelar",824 Cottonwood Drive,Timbiras,9:30 AM,3:00 PM,-4.087067,-43.7142484
685,Dare Inc,82924 Esker Point,Huangshi,7:30 AM,5:00 PM,30.20003,115.038835
686,"Hoppe, McClure and Johnston",5 Hermina Street,Honglu,9:30 AM,4:30 PM,35.293048,112.390857
687,Cremin LLC,68 Saint Paul Lane,Taganskiy,9:00 AM,4:00 PM,55.7393377,37.6642542
688,Wolff Inc,007 American Ash Park,Wenwuba,10:00 AM,1:30 PM,25.600871,115.804049
689,"Krajcik, Rogahn and Lang",7913 Barnett Place,Hongdu,10:30 AM,5:00 PM,25.8749206,116.0386902
690,"Boehm, Schmitt and Mayer",84632 Sherman Center,Xixiang,8:00 AM,5:00 PM,32.983101,107.766613
691,"Hintz, Bins and Zulauf",9 Buena Vista Hill,Rongai,9:00 AM,4:00 PM,-1.3938636,36.7442377
692,"Homenick, Powlowski and Quitzon",14 Rowland Trail,Lesnikovo,9:00 AM,3:30 PM,57.5637205,48.7739491
693,"Smitham, Schmidt and Lebsack",13 Mcbride Crossing,Trindade,9:00 AM,4:30 PM,-7.740099,-40.2884386
694,Bauch-Wiegand,42421 Hoepker Hill,Rio Brilhante,11:00 AM,4:30 PM,-21.8047006,-54.5432691
695,"MacGyver, Fisher and Wyman",80 Buena Vista Terrace,Caieiras,7:00 AM,2:30 PM,-23.3711864,-46.7575221
696,"Herman, Reichel and Schimmel",3970 Dovetail Trail,Salinas,8:30 AM,4:30 PM,36.6777372,-121.6555013
697,Brown and Sons,9464 Merchant Plaza,Turku,8:30 AM,1:00 PM,60.3588201,22.2240066
698,"Muller, Tromp and Gleichner",6597 Ronald Regan Place,Bol’shoye Skuratovo,10:00 AM,1:00 PM,53.43852,36.84085
699,Keeling Inc,19 Brown Park,Narutō,10:00 AM,4:00 PM,35.6083867,140.410859
700,"Wolff, Greenholt and Nolan",39 Harbort Circle,Chashnikovo,8:30 AM,5:00 PM,56.0297222,37.1691666
701,Gislason-Veum,28 Moland Plaza,Chatian,10:30 AM,3:00 PM,22.919769,113.618216
702,"Lakin, Wisozk and Kovacek",26 Scofield Place,Jakobstad,9:00 AM,3:00 PM,63.6939838,22.7427761
703,Wuckert Inc,1 Park Meadow Hill,Shidu,9:30 AM,1:00 PM,39.639844,115.58934
704,Flatley and Sons,70 Glacier Hill Road,Belomorsk,11:00 AM,2:00 PM,64.5281061,34.7710761
705,Padberg Group,1645 Corry Road,Winnica,7:00 AM,1:30 PM,52.6424878,20.9312946
706,West and Sons,1 Red Cloud Drive,Bunut,9:00 AM,1:30 PM,0.2561666,102.1175404
707,"Abbott, Gulgowski and Grimes",8206 Annamark Drive,Cahors,8:00 AM,2:00 PM,47.772714,-1.813332
708,"Haag, Emard and Prohaska",6094 Cardinal Way,Kandi,9:00 AM,4:00 PM,11.1305191,2.9325785
709,Fisher LLC,18868 Prairieview Trail,Hostouň,10:30 AM,1:30 PM,49.5597209,12.7714782
710,Swift-Koelpin,794 Sachs Center,Poja,8:30 AM,5:00 PM,-8.4929791,119.0110762
711,"O'Keefe, Greenfelder and Stark",1005 Fairfield Drive,Larvik,8:30 AM,3:30 PM,59.0295207,10.0664589
712,Rippin-Weimann,49744 Vera Point,Gudurica,7:00 AM,2:00 PM,45.1652963,21.4487053
713,"Weissnat, Heidenreich and Smith",06687 Gale Center,Gagarin,10:30 AM,4:30 PM,40.6605521,68.1789134
714,"Roob, Green and Cummings",77103 High Crossing Lane,Nîmes,7:30 AM,4:00 PM,43.8363441,4.3566473
715,Durgan-Bogisich,2145 Karstens Avenue,Grindavík,9:00 AM,3:30 PM,63.839604,-22.410284
716,"O'Hara, Jacobs and Fay",221 Eastwood Center,Puno,7:30 AM,2:00 PM,-15.8402218,-70.0218805
717,O'Reilly Inc,2733 Pierstorff Trail,Descalvado,8:30 AM,2:30 PM,-21.8898802,-47.6455169
718,Wolff LLC,971 Buell Crossing,Song’ao,8:00 AM,3:30 PM,29.60095,121.685484
719,Miller-Cole,96844 Mariners Cove Center,Drobin,8:00 AM,5:00 PM,52.7374731,19.9917009
720,Roberts-Swaniawski,36552 Waxwing Road,Artimet,9:00 AM,3:00 PM,40.1518048,44.2673774
721,"Howell, Dooley and Bayer",4 Glendale Circle,Luleå,10:00 AM,5:00 PM,65.5759908,22.1917204
722,Nader-Wiegand,54746 Amoth Avenue,Salcedo,7:30 AM,4:00 PM,19.3947363,-70.5263459
723,Schulist-Reichert,0142 American Drive,Vale de Figueira,9:30 AM,5:00 PM,41.0924488,-7.5927209
724,"Wolff, Windler and Ernser",5 Ridgeway Way,Wubao,9:00 AM,3:00 PM,37.452068,110.739673
725,Bergstrom-Smitham,92398 Shopko Drive,Yeysk,9:00 AM,1:00 PM,46.711547,38.2755861
726,Shanahan and Sons,618 Schiller Junction,Bendilmuning,8:30 AM,4:30 PM,-8.0925,111.9417
727,O'Keefe-Ondricka,886 Green Point,Phanom Phrai,8:30 AM,1:00 PM,15.678696,104.1040204
728,"Huels, Marvin and Gulgowski",0184 Bobwhite Road,Wufeng,7:30 AM,4:00 PM,30.199688,110.674706
729,"Ortiz, Hackett and Konopelski",94643 Knutson Hill,Maykopskoye,9:30 AM,4:30 PM,44.7400375,39.8885098
730,Pfeffer-Hermiston,3369 Trailsway Court,Hexiangqiao,8:00 AM,2:30 PM,29.916694,121.529927
731,Douglas Inc,56308 2nd Alley,Takahashi,7:00 AM,5:00 PM,38.632511,140.4875299
732,Friesen Group,9 Ridgeview Way,Nora,11:00 AM,2:00 PM,59.3453304,14.5678141
733,Kemmer-Anderson,7500 Manley Road,Barra Bonita,11:00 AM,3:00 PM,-22.472994,-48.5637543
734,Senger-Keeling,478 Saint Paul Crossing,Rudong,7:00 AM,2:30 PM,32.331765,121.185201
735,Ward-White,4 Kensington Street,Jablanovec,8:30 AM,3:30 PM,45.8800176,15.8550922
736,Koepp-Feest,796 Saint Paul Center,Guadalupe,8:30 AM,5:00 PM,20.7288886,-100.7612288
737,Gaylord-Schneider,781 Nova Lane,Viedma,8:00 AM,5:00 PM,-34.5055818,-58.6671801
738,Halvorson-Witting,9286 Mendota Street,Limulunga,11:00 AM,3:00 PM,-15.133391,23.1530897
739,Altenwerth-Steuber,03 Bluejay Court,Nanhai,9:30 AM,1:30 PM,23.028956,113.143441
740,Stokes and Sons,26261 Manitowish Plaza,Agoncillo,10:00 AM,1:00 PM,14.7252329,121.0400557
741,Walker-Kulas,3 Mayer Terrace,Khovd,7:30 AM,1:30 PM,47.9795218,91.634756
742,O'Kon Group,6085 Sage Plaza,Kikinda,8:30 AM,4:00 PM,45.8272842,20.4615173
743,Wisoky and Sons,3323 Algoma Avenue,Sattahip,7:00 AM,4:00 PM,12.6836578,100.901604
744,Terry LLC,7 Sommers Junction,Taber,9:00 AM,4:30 PM,49.7859606,-112.1496533
745,Ullrich-Jast,09 Dixon Place,Abu Dhabi,9:00 AM,2:00 PM,24.453884,54.3773438
746,"Keeling, Jones and Johnston",61 Oneill Terrace,Drezdenko,8:00 AM,4:00 PM,52.83797,15.83104
747,Carroll-Kuphal,3 Butterfield Lane,Paiçandu,10:30 AM,4:00 PM,-23.4554707,-52.0423373
748,Parker LLC,0 Kim Lane,Thomastown,8:00 AM,1:30 PM,53.2229873,-6.7434401
749,Flatley-Welch,7640 Union Road,Hucheng,7:30 AM,3:00 PM,36.1899557,117.1168644
750,"Lockman, Schiller and Pagac",289 Derek Center,Lukovo,7:30 AM,3:00 PM,41.1812066,20.7453177
751,"Osinski, Heathcote and West",84 Donald Alley,Bang Kaeo,10:00 AM,2:30 PM,7.4286324,100.1927389
752,Lesch-Thompson,367 Amoth Plaza,Binalonan,7:30 AM,4:00 PM,16.0655913,120.5877148
753,"Langosh, Sporer and Armstrong",74424 Talmadge Place,Ozerki,8:30 AM,5:00 PM,59.9251489,30.317148
754,"Cremin, Stamm and Oberbrunner",9883 Garrison Hill,Xinshidu,8:00 AM,4:00 PM,31.264592,121.585315
755,Walker-Thompson,21 Orin Terrace,Krajan,9:30 AM,2:00 PM,-7.5450262,111.6556388
756,"Rippin, Klocko and Windler",6069 Esch Avenue,Vlycháda,10:00 AM,3:00 PM,36.3384589,25.4333251
757,Blanda Group,96 Nobel Avenue,Baima,9:00 AM,4:00 PM,29.528923,104.990101
758,"Rohan, Beer and Wisoky",1553 Bellgrove Junction,Shuangxiqiao,10:00 AM,4:00 PM,29.020827,110.637506
759,Rowe and Sons,4541 Crest Line Trail,Qiancheng,8:30 AM,3:00 PM,27.190708,109.818685
760,Pagac-Hirthe,91531 Cascade Parkway,København,8:30 AM,3:00 PM,55.6777952,12.5751597
761,Baumbach LLC,0 Kennedy Terrace,Pedro Betancourt,7:00 AM,4:30 PM,22.7292345,-81.2917971
762,"Jaskolski, Reichert and Ullrich",2 Mifflin Hill,Vukovije Donje,7:00 AM,1:30 PM,44.4635116,18.7494454
763,Breitenberg-Weissnat,49036 Lighthouse Bay Street,Heting,7:00 AM,1:30 PM,44.387458,-69.586443
764,O'Conner-Tremblay,9 Nelson Trail,El Coco,10:30 AM,2:30 PM,8.8702881,-79.810063
765,Kiehn-Bode,893 Laurel Junction,Kampungbaru,9:00 AM,4:00 PM,-1.079239,102.969002
766,Hamill Group,190 Grover Street,Feijó,7:30 AM,3:00 PM,-8.1754307,-70.3432459
767,Greenfelder-Larson,8536 Blackbird Hill,Hồ Xá,9:30 AM,3:30 PM,17.0633593,107.0155599
768,Parker and Sons,2120 Reinke Drive,Mompach,9:30 AM,5:00 PM,49.7514502,6.4641645
769,"Cremin, Batz and Grant",3 Cottonwood Terrace,Boise,7:30 AM,1:30 PM,43.55,-116.28
770,Prohaska and Sons,3 2nd Crossing,Guadalupe,10:00 AM,4:00 PM,25.6765837,-100.2602364
771,"Pouros, Green and Thiel",985 Dorton Street,Koungou,9:00 AM,5:00 PM,-12.753316,45.2300515
772,Sporer-Okuneva,93 Garrison Crossing,Mingguang,11:00 AM,3:00 PM,32.777055,117.989199
773,"McLaughlin, Shields and Frami",2 Loeprich Road,Nong Saeng,9:30 AM,2:00 PM,17.1413481,102.7824777
774,"Dickinson, Kling and Mann",3491 Katie Park,Talawi,11:00 AM,5:00 PM,3.1638781,99.5339744
775,Ruecker Group,34595 Summit Crossing,Vazhiny,10:00 AM,4:30 PM,60.9596322,34.0219218
776,"Schamberger, Lebsack and Kovacek",70552 Maple Wood Crossing,Tuofeng,9:30 AM,5:00 PM,24.936417,98.482754
777,Hamill Group,65 Elmside Circle,Quxia,9:00 AM,4:00 PM,32.096344,118.909159
778,Gislason LLC,2134 Artisan Plaza,Luopioinen,10:00 AM,1:30 PM,61.3649277,24.6566461
779,Stark and Sons,55 Petterle Parkway,Navais,10:00 AM,4:30 PM,41.4176872,-8.7653155
780,"Hilll, Johns and Mertz",379 7th Circle,Piquete,9:00 AM,5:00 PM,-22.601206,-45.168166
781,"Windler, Prosacco and Kling",26 Mallard Hill,Dongyangzhen,7:30 AM,2:00 PM,28.864642,115.643727
782,Dare and Sons,230 Leroy Center,Kobiernice,10:30 AM,3:30 PM,49.8474143,19.2057487
783,Olson LLC,7383 Bunting Trail,Jicun,10:30 AM,1:00 PM,37.870792,114.406305
784,Runte-Abshire,255 Anthes Avenue,Miskolc,10:00 AM,2:30 PM,48.0793507,20.7653961
785,"Green, Von and Davis",6 Fordem Lane,Tandag,10:00 AM,4:30 PM,9.090009,126.162783
786,"Watsica, Maggio and Schultz",0497 Eagan Lane,Ehen Hudag,8:30 AM,2:00 PM,39.21074,101.66898
787,"Mills, Schmidt and Stoltenberg",6 Division Pass,Chengzhai,8:00 AM,3:30 PM,37.114895,114.839318
788,Jacobs Inc,9 Scofield Crossing,Pointe-à-Pitre,8:00 AM,5:00 PM,16.2413934,-61.5340396
789,Tremblay-Fahey,28 Badeau Place,Keboireng,8:00 AM,3:00 PM,-8.2517848,111.755504
790,Leuschke-Dickinson,7 Schmedeman Avenue,Berlin,7:30 AM,5:00 PM,52.4767935,13.2962036
791,"Schuster, Hegmann and Klocko",31485 Glendale Court,Longgao,9:00 AM,2:30 PM,34.954134,108.320121
792,Ebert Group,0 Messerschmidt Parkway,Nakhon Nayok,7:00 AM,4:30 PM,14.0786882,101.0259275
793,Schiller LLC,03 Gulseth Lane,Celje,7:30 AM,3:30 PM,46.2372396,15.2473699
794,Tromp-Spinka,0 Glacier Hill Junction,Jiahe,8:30 AM,4:30 PM,25.587519,112.36902
795,Hills Inc,1 Browning Hill,Gaya,9:00 AM,2:00 PM,11.862577,8.9990801
796,Bogisich-Lesch,8 Doe Crossing Pass,Chiara,11:00 AM,2:30 PM,-13.87016,-73.667793
797,Cummerata-Rau,84560 Shopko Park,Shevchenkove,7:30 AM,4:00 PM,49.6877737,37.1778581
798,Runolfsson and Sons,833 Logan Lane,Terang,9:30 AM,2:00 PM,-6.1785289,106.6315413
799,Sanford-Huels,289 Saint Paul Avenue,Virbalis,9:30 AM,4:30 PM,54.62667,22.81694
800,"Bartell, Konopelski and Roberts",17919 Russell Pass,Dongdajie,11:00 AM,5:00 PM,38.1008157,115.1743446
801,Emmerich and Sons,3 Melvin Terrace,Vinha,10:00 AM,4:00 PM,41.4292615,-8.1757379
802,Dickens and Sons,927 Algoma Avenue,Gesikan,10:00 AM,1:00 PM,-7.7090989,109.6922026
803,"Ankunding, Huel and Bartell",8998 Dovetail Park,Praimarada,10:30 AM,3:00 PM,-9.8492904,119.7371425
804,"Koss, Kuhic and Towne",21288 Leroy Park,San Emilio,10:30 AM,5:00 PM,17.228242,120.6124166
805,"Durgan, Wisoky and Lebsack",5608 Homewood Place,Žiželice,9:00 AM,3:00 PM,50.3674128,13.5400012
806,"Walsh, Conroy and Reichel",2199 Pleasure Point,Wenquan,7:30 AM,4:30 PM,31.364042,108.520914
807,"Ondricka, Jerde and Hilll",4 Del Sol Alley,Velké Svatoňovice,7:30 AM,5:00 PM,50.5374971,16.0198605
808,Ortiz and Sons,56896 Clarendon Road,Yŏnggwang-ŭp,7:00 AM,4:00 PM,40.01833,127.45472
809,Rolfson-Sipes,840 Forest Dale Trail,Gejiu,8:00 AM,1:00 PM,23.359121,103.160034
810,"Ritchie, Mayert and Sanford",6 Old Shore Crossing,Liješnica,8:00 AM,4:30 PM,44.5241143,18.0994197
811,Renner-O'Connell,6365 Lunder Road,Arshaluys,7:30 AM,4:30 PM,40.1667409,44.2123603
812,Kautzer-Bogan,9 Maple Wood Terrace,Ostrov,7:00 AM,4:30 PM,57.3397034,28.3570946
813,Blick LLC,86332 Esker Way,Luoyang,8:30 AM,4:30 PM,34.620202,112.453926
814,Effertz LLC,47 Hooker Pass,Ejidal,10:00 AM,4:00 PM,23.9891132,-104.6751805
815,Sauer-Rutherford,91788 Susan Crossing,Sukošan,9:00 AM,2:30 PM,44.0470411,15.3150024
816,Lubowitz and Sons,3 Tennessee Plaza,Rublëvo,9:00 AM,1:00 PM,55.7242814,37.1853286
817,Frami-McLaughlin,3 Buhler Alley,Gaotuo,8:00 AM,4:00 PM,41.132444,122.660989
818,Howe LLC,46767 Oakridge Park,Grenoble,7:00 AM,3:00 PM,45.1934857,5.7218985
819,Breitenberg and Sons,295 Eagan Circle,Sulahan,11:00 AM,4:00 PM,-8.4164207,115.3459831
820,Kilback-Ortiz,32583 Texas Park,Chojata,8:30 AM,3:30 PM,-16.4,-70.733333
821,"Pagac, Barrows and Koch",2247 Delladonna Circle,Maymana,10:30 AM,3:00 PM,35.91784,64.7755147
822,Langosh and Sons,3058 Anthes Place,Yuen Long Kau Hui,7:30 AM,3:30 PM,22.44668,114.033953
823,Labadie and Sons,7866 Butternut Alley,Xiachen,9:00 AM,1:30 PM,24.479833,118.089425
824,Quigley-Ondricka,470 Eastwood Terrace,Tongzi,10:00 AM,5:00 PM,28.133231,106.825301
825,"Schneider, Runolfsson and Trantow",420 Canary Avenue,Itapissuma,10:30 AM,1:00 PM,-7.7493145,-34.917581
826,Reilly-Hammes,1 Green Court,Heping,11:00 AM,4:00 PM,24.44218,114.938684
827,Ward-Baumbach,1 Myrtle Place,Guantang,10:00 AM,1:00 PM,24.304673,113.136459
828,Nolan-Harber,7 Hudson Drive,Viligili,8:30 AM,1:00 PM,0.7573413,73.434227
829,Zulauf Inc,30549 Alpine Center,Kipini,8:30 AM,2:00 PM,-2.5265605,40.529246
830,Moen Group,45212 Westerfield Center,Laliki,9:00 AM,1:00 PM,49.5288417,19.0293816
831,Fritsch-Shields,6 Autumn Leaf Road,Al Hijrah,7:00 AM,1:30 PM,17.29788,43.38718
832,Runte-White,8489 Northwestern Plaza,Trzcińsko Zdrój,10:30 AM,2:30 PM,52.96446,14.60461
833,"Oberbrunner, Graham and Gottlieb",3 Superior Junction,Huotian,7:30 AM,4:00 PM,26.930956,113.717886
834,"Yost, Rogahn and Russel",33 Declaration Pass,Oslo,8:00 AM,3:00 PM,59.9458801,10.7822137
835,Gulgowski-Legros,449 Village Crossing,Baitoa,10:00 AM,2:00 PM,19.309169,-70.6977162
836,Dickens Inc,27247 Knutson Lane,Ede,10:00 AM,4:00 PM,52.0442252,5.6463088
837,Donnelly Inc,4817 Leroy Pass,Marialva,11:00 AM,1:00 PM,-23.5266796,-51.8311441
838,Will-Kozey,07 Dapin Point,Huishi,8:30 AM,2:30 PM,35.6905313,105.0546075
839,"Corkery, Frami and Gibson",54837 Union Crossing,Bamencheng,7:30 AM,5:00 PM,33.347316,120.16366
840,Rosenbaum and Sons,9 Lake View Way,Zheshan,9:00 AM,5:00 PM,29.985295,122.207215
841,Baumbach and Sons,43467 Hintze Avenue,Mthatha,10:30 AM,5:00 PM,-31.5720128,28.7649835
842,Feeney-Johns,47801 Kennedy Road,Alto Barinas,8:00 AM,1:00 PM,8.59207,-70.225082
843,Lubowitz-Williamson,09406 Mendota Park,Monte da Pedra,10:30 AM,5:00 PM,39.3641607,-7.7461418
844,"Miller, Mann and Cruickshank",29625 Red Cloud Trail,Ningshan Chengguanzhen,7:30 AM,4:00 PM,33.30992,108.307889
845,Braun-Beahan,86995 Schiller Street,Qiryat Motzkin,8:00 AM,4:00 PM,32.838202,35.079523
846,Bartell Inc,42002 American Plaza,Baghlān,8:00 AM,1:30 PM,35.8042947,69.2877535
847,Zboncak-Hirthe,29336 Memorial Terrace,Bukuru,10:30 AM,4:30 PM,9.7652591,8.8597095
848,Grant-Casper,44453 Bluestem Alley,Nanyang,10:00 AM,3:00 PM,32.990664,112.528308
849,Brakus-Hegmann,44 Karstens Center,Futtsu,11:00 AM,2:30 PM,35.3017596,139.8470483
850,"Bednar, Mann and Bins",3874 2nd Point,Shāhpur,8:00 AM,3:00 PM,32.2951394,75.2071469
851,Collier-Gleason,62140 Village Drive,Daluo,7:00 AM,1:30 PM,23.348395,111.023398
852,Hamill-Parisian,092 Duke Alley,Xiliguantun,9:30 AM,1:00 PM,37.07833,115.94139
853,Turner-McDermott,6 Scofield Park,Julun,7:30 AM,1:00 PM,24.663055,118.41315
854,Carter-Hyatt,51105 Gina Lane,Kihancha,9:00 AM,1:00 PM,-1.1939843,34.6165033
855,Kulas-Nienow,994 Tennyson Hill,Piran,11:00 AM,1:30 PM,45.4698284,13.6405292
856,Orn-Strosin,34 Almo Hill,Hufang,11:00 AM,1:00 PM,27.330904,117.044081
857,Kuhic-Johnson,94257 Glendale Junction,Monguno,9:00 AM,4:00 PM,12.6729174,13.616014
858,"Sauer, Romaguera and Jaskolski",44273 Iowa Plaza,Al Ḩāḑir,10:30 AM,2:30 PM,35.9928004,37.0507676
859,Erdman-Farrell,11327 Waywood Drive,Veshnyaki,7:00 AM,3:30 PM,55.7368049,37.8286538
860,Kozey-Mitchell,3 Pennsylvania Alley,Filothéi,10:00 AM,3:30 PM,38.0222208,23.7851957
861,Padberg-Huels,63747 Eastlawn Avenue,Divnomorskoye,8:30 AM,3:00 PM,44.5047212,38.1300171
862,"Cummings, Jaskolski and Fay",48 Monument Junction,Huangcun,10:00 AM,3:30 PM,23.131797,113.407143
863,"Johnston, Deckow and Howe",1 Schmedeman Circle,Mbomba,9:30 AM,3:00 PM,-0.5223759,121.674572
864,"Hoppe, O'Keefe and Champlin",752 Maywood Parkway,Bungbulang,10:00 AM,4:00 PM,-7.4585953,107.6008169
865,Johnston-Huels,4433 Nova Hill,Labuan,11:00 AM,3:30 PM,6.3802946,116.4246476
866,"Cronin, Lindgren and Mayer",13918 Melby Point,Jinglou,10:30 AM,4:30 PM,30.274084,120.15507
867,Kub-Bergstrom,6743 Milwaukee Center,Ḑawrān ad Daydah,10:00 AM,3:30 PM,14.73927,44.20664
868,"Wintheiser, Bode and Tremblay",086 Namekagon Junction,Eloúnda,9:30 AM,2:00 PM,35.2613505,25.7234164
869,Gottlieb-Durgan,90285 Welch Junction,Douliu,10:30 AM,4:00 PM,23.7077947,120.5409089
870,"Hegmann, Pouros and Hessel",22839 Cottonwood Hill,As Sukhnah,9:00 AM,2:00 PM,34.8856144,38.8754323
871,Flatley Inc,283 Ridgeview Street,Bangkal,8:00 AM,1:30 PM,-2.609012,112.403397
872,Gottlieb Inc,77714 3rd Park,Kalugmanan,11:00 AM,1:00 PM,8.2511483,124.8514628
873,"Considine, Lakin and Waelchi",49 Maple Point,Rehoboth,11:00 AM,4:00 PM,-23.3196141,17.0893798
874,"Bartoletti, Reynolds and Kuhlman",39 Merchant Park,Raposeira,7:30 AM,3:00 PM,41.4009304,-8.335096
875,Predovic-Predovic,1688 Stang Center,Banjarsari,8:00 AM,3:30 PM,-7.5429807,110.8135688
876,Herzog-Wuckert,05 Barnett Point,Huiwan,9:00 AM,2:30 PM,24.908293,102.650211
877,"Ruecker, Pacocha and Hammes",9 Stoughton Court,Atalaia,9:30 AM,5:00 PM,-23.1157079,-52.0851258
878,Jerde LLC,297 Springs Court,San Antonio,8:30 AM,5:00 PM,19.3851705,-99.1837453
879,Brekke Group,7 Oak Place,Čoka,8:00 AM,2:00 PM,45.9469236,20.1591006
880,"Huel, Trantow and Bosco",078 Jana Circle,Bolyarovo,7:00 AM,4:30 PM,42.1988667,26.7817371
881,Mann-Wuckert,7104 Mesta Alley,Pasirpengarayan,11:00 AM,3:00 PM,0.839501,100.2880581
882,Ondricka-Von,38 Eagan Street,Khān Shaykhūn,7:00 AM,4:00 PM,35.4403783,36.65721
883,Lemke Group,2 Erie Plaza,Krmelín,10:00 AM,2:30 PM,49.7291343,18.2354187
884,Dicki Group,693 Kim Avenue,Mandráki,8:30 AM,1:30 PM,36.6107151,27.1320962
885,Stehr LLC,00513 Springview Center,Benoy,7:00 AM,2:00 PM,8.9909734,16.3169479
886,Waters-Olson,532 Chinook Crossing,Jahāniān Shāh,8:30 AM,4:00 PM,24.9104797,69.3504869
887,Stoltenberg and Sons,5 Dovetail Alley,Włocławek,10:30 AM,2:30 PM,52.6446193,19.0339855
888,"Jacobson, McKenzie and Windler",5035 3rd Avenue,Lubuk Sikaping,7:00 AM,4:30 PM,0.1840524,100.1255164
889,Murray-Herman,85 Muir Lane,Cali,9:00 AM,3:30 PM,3.4851908,-76.5112471
890,"Koss, Davis and Cruickshank",78790 Comanche Pass,Pashiya,8:00 AM,4:30 PM,58.434681,58.264291
891,Kilback LLC,1531 Banding Junction,Marseille,9:30 AM,5:00 PM,43.7441795,2.511999
892,"Kassulke, Hills and Dibbert",23 Center Point,Jeminay,8:00 AM,5:00 PM,47.443101,85.874096
893,Dietrich-Raynor,02 Dryden Pass,Pyhäranta,11:00 AM,2:00 PM,60.9501559,21.444609
894,Wiza Group,0357 Corscot Way,Mapou,9:00 AM,3:30 PM,-20.0722773,57.6184076
895,Rosenbaum-Mertz,31 Randy Center,Zhuravka,11:00 AM,4:30 PM,49.7877327,37.1720386
896,Jacobi LLC,39744 Bluestem Crossing,Kumane,7:30 AM,2:30 PM,45.5322977,20.2153721
897,Baumbach-Collins,236 Charing Cross Park,Amparafaravola,7:00 AM,3:00 PM,-17.5872806,48.2219395
898,Pollich-Huels,1314 Upham Crossing,Kista,8:30 AM,2:30 PM,59.4050955,17.9551008
899,Moen-Heathcote,325 Dennis Alley,Leiden,7:00 AM,5:00 PM,52.1513886,4.4982869
900,Lemke LLC,396 Jackson Court,Koudougou,8:00 AM,4:30 PM,12.2562183,-2.3517526
901,Roob-Rodriguez,530 Doe Crossing Center,Sorochinsk,7:30 AM,1:30 PM,52.431009,53.1620435
902,Morissette LLC,9 Nancy Avenue,Ugljan,8:00 AM,1:30 PM,44.1316723,15.1038874
903,Green-Schaden,2026 Lyons Road,Phaya Thai,8:30 AM,5:00 PM,13.7506463,100.5326139
904,Raynor Inc,25 Pawling Lane,København,11:00 AM,3:30 PM,55.6720347,12.5911341
905,Leannon LLC,66974 Sommers Point,Seredeyskiy,7:00 AM,2:00 PM,54.0518227,35.229882
906,Strosin-Bechtelar,3757 Barby Way,Uttar Char Fasson,10:30 AM,3:30 PM,21.9868109,90.295166
907,Frami LLC,6 Springs Pass,Água Preta,10:30 AM,4:30 PM,-8.7393595,-35.4562795
908,"Towne, Flatley and Mertz",4 Express Court,Krasnyye Barrikady,7:00 AM,1:00 PM,46.204501,47.851999
909,Leuschke-Crooks,41 Declaration Junction,Doubravice nad Svitavou,10:00 AM,1:30 PM,49.4390256,16.6408689
910,"Dooley, Herzog and Reichel",06703 Washington Parkway,Digdig,11:00 AM,1:00 PM,12.6679167,123.9881642
911,Rohan-Kris,5 Starling Junction,Qorovulbozor,10:30 AM,4:00 PM,39.4900417,64.7992272
912,"Kreiger, Moen and D'Amore",20 Gateway Junction,Solec-Zdrój,11:00 AM,3:30 PM,50.3657373,20.8874542
913,Hahn LLC,32907 Lien Drive,Meipu,10:00 AM,2:30 PM,45.7718709,126.6701902
914,"Weber, White and Carter",7235 Northfield Alley,Baras,10:00 AM,4:30 PM,14.570924,121.0276584
915,Rohan LLC,0 Buell Terrace,Mont-Saint-Aignan,9:00 AM,3:30 PM,49.4660029,1.0736574
916,Lesch LLC,675 Porter Point,Lutomiersk,10:30 AM,1:30 PM,51.7788594,19.181814
917,"Hudson, Hickle and Casper",0480 North Way,Verenchanka,8:00 AM,5:00 PM,48.5443793,25.7418469
918,Hyatt Inc,6 Charing Cross Drive,Maredakamau,10:00 AM,3:00 PM,-9.435,119.1866
919,Watsica and Sons,6187 Birchwood Place,Santa Rita,9:00 AM,1:00 PM,-17.9808139,-63.3697226
920,"Pouros, Boyer and Daugherty",36 Hudson Trail,Psáry,9:00 AM,5:00 PM,49.9390977,14.5064706
921,VonRueden Group,29 Dixon Street,Cheremnoye,7:00 AM,4:30 PM,53.16972,83.21333
922,"Rosenbaum, Brakus and Marks",74336 Algoma Alley,Tiebukenwusan,7:00 AM,3:30 PM,46.80381,85.45172
923,"Botsford, Herman and Heidenreich",2820 Sunbrook Center,Uyutne,10:00 AM,3:00 PM,45.1973827,33.2979082
924,Brekke-Leuschke,9 Fordem Place,Alor Setar,9:30 AM,2:30 PM,6.1244023,100.3674801
925,Haag Inc,0232 Namekagon Terrace,Yarmolyntsi,8:30 AM,4:00 PM,49.189578,26.8447254
926,Gutmann and Sons,5 Moose Avenue,Varginha,9:30 AM,5:00 PM,-21.5560521,-45.4368421
927,Jacobi Inc,48508 8th Circle,Serikbuya,7:00 AM,4:00 PM,39.302799,77.823975
928,Boyer-Schumm,66 Golden Leaf Plaza,Dengfeng,8:00 AM,3:30 PM,34.454443,113.050581
929,Keebler Inc,123 New Castle Hill,Limoges,11:00 AM,4:30 PM,45.521519,3.5276642
930,"Langworth, Kohler and Prohaska",91 Chive Point,Pocokan Satu,7:00 AM,1:00 PM,-6.9738,112.8045
931,"Schneider, Reilly and Daniel",09 Dryden Alley,Göteborg,9:30 AM,2:00 PM,57.6801021,11.9901161
932,Pacocha LLC,5 Nancy Hill,Khokhryaki,9:00 AM,1:30 PM,56.9154663,53.3224108
933,Gorczany-Larson,1619 School Center,Znamenskoye,7:00 AM,2:00 PM,43.6753017,45.1243099
934,"Walsh, Roob and Rolfson",848 Fairfield Drive,Kirkland,10:30 AM,3:30 PM,45.448409,-73.858939
935,Maggio-Armstrong,277 Pleasure Alley,Yangjia,8:30 AM,4:30 PM,39.9368237,116.4442945
936,"Schoen, Koss and Mayert",0 Nobel Point,Skelleftehamn,8:00 AM,1:00 PM,64.6789618,21.242165
937,"Jacobi, Gislason and Parker",98 2nd Road,Sychëvo,10:30 AM,4:00 PM,55.9576019,36.2249059
938,Murphy-Reilly,9 Nova Way,Quatro Barras,9:30 AM,2:30 PM,-25.3631459,-49.0801588
939,"Roob, Emard and Zieme",317 Daystar Way,Rana,10:00 AM,1:00 PM,38.6926647,-9.3466983
940,"Macejkovic, MacGyver and Swaniawski",4039 Katie Avenue,Três de Maio,9:00 AM,2:00 PM,-27.780531,-54.2362302
941,"DuBuque, McGlynn and Kemmer",9 Bobwhite Street,Pršovce,7:30 AM,4:30 PM,42.08336,21.05994
942,Larkin LLC,51550 Oak Circle,Wangcungang,8:30 AM,3:00 PM,21.430823,110.949819
943,"Pagac, Mosciski and Padberg",23308 Eggendart Road,Stonewall,11:00 AM,3:30 PM,50.13441,-97.32676
944,Hackett-Daniel,65140 Hoffman Circle,Montes,10:00 AM,3:00 PM,39.61335,-8.9519943
945,"Koepp, O'Connell and Bailey",90 Cody Junction,Tunggulsari,8:00 AM,1:30 PM,-6.5489311,111.0683954
946,Ryan-Prohaska,02756 Daystar Pass,Colca,10:30 AM,3:30 PM,-15.6093293,-72.0896229
947,"Koepp, Kihn and Hartmann",90 Bay Center,Jingshan,10:00 AM,2:00 PM,39.9250988,116.3968433
948,Jacobson and Sons,44 Vermont Place,Igbo-Ukwu,9:00 AM,2:30 PM,6.0122865,7.0175879
949,Fahey-Hammes,95144 Ruskin Center,Zhaoxian,8:30 AM,1:30 PM,37.75643,114.776185
950,Wilderman and Sons,9464 Nancy Hill,Langkap,7:00 AM,1:30 PM,-8.1992561,113.5520176
951,"Wisoky, Emard and Krajcik",2 Doe Crossing Avenue,Tucurú,8:30 AM,5:00 PM,15.2931866,-90.1147496
952,Oberbrunner-Effertz,2350 Sutteridge Pass,Xin’andu,11:00 AM,2:00 PM,30.753602,113.926374
953,Bernhard-Konopelski,995 Stuart Plaza,Cigarogol,10:30 AM,2:00 PM,-7.2784402,106.6094916
954,Leuschke-Haag,72350 Pine View Plaza,Marco,7:00 AM,1:00 PM,-3.1865586,-40.2475694
955,Stanton-Jacobi,29 Ilene Alley,Ladário,9:30 AM,3:00 PM,41.2115446,-8.1699995
956,"Ferry, Monahan and Muller",8 Oxford Point,Souto,8:30 AM,4:00 PM,41.8401694,-8.8183159
957,Lehner and Sons,3160 Express Center,Koltubanovskiy,8:00 AM,4:30 PM,51.3988867,34.8922317
958,Wisoky-Mertz,19863 Upham Road,Colorado Springs,7:30 AM,3:00 PM,38.9583005,-104.7812654
959,Renner-Boyle,0 Kropf Parkway,Tadou,9:30 AM,3:30 PM,26.3705389,118.2323381
960,"Luettgen, Toy and Runolfsdottir",93 Oak Alley,Täby,8:00 AM,1:00 PM,59.4641209,18.0433215
961,"Dicki, Hoeger and Stroman",766 Novick Court,Gaojia,8:00 AM,1:00 PM,29.9460643,122.3032914
962,Keebler Inc,00 Summit Park,Zuya,7:00 AM,1:30 PM,45.0543662,34.3179269
963,Torphy Inc,79 Autumn Leaf Terrace,Artsvanist,8:30 AM,4:30 PM,40.145705,45.5109432
964,Lueilwitz-Kiehn,6 Briar Crest Way,Lloqan,9:00 AM,2:00 PM,42.52444,20.28083
965,Welch-Kassulke,6 Parkside Street,Monte Caseros,10:30 AM,5:00 PM,-32.9576242,-68.7400523
966,Predovic-Littel,4813 Sunbrook Point,Sundbyberg,8:30 AM,4:00 PM,59.3618675,17.9791475
967,Yost Group,14 Center Hill,Dajalorong,11:00 AM,3:30 PM,-7.0609,113.7136
968,Murray LLC,44 Karstens Parkway,Retenggoma,8:00 AM,1:00 PM,-8.6662,122.068
969,West-Kling,13699 Norway Maple Street,Spanish Town,8:00 AM,4:00 PM,18.0193171,-76.9758274
970,"Stroman, Hilpert and Daugherty",36 Schmedeman Court,Makurdi,11:00 AM,4:00 PM,7.7321516,8.539144
971,"Ferry, Wiegand and VonRueden",08089 Loeprich Lane,Desa Wetan Ciakar,8:00 AM,2:00 PM,-6.8238747,107.9195543
972,Hauck LLC,7965 Loomis Trail,Naas,10:00 AM,5:00 PM,53.213319,-6.67045
973,Gutmann Group,1 Eastwood Road,Plumbon,10:30 AM,2:00 PM,-6.719137,108.4703138
974,Russel-Wuckert,795 Prentice Way,Pandak,8:30 AM,2:00 PM,-7.9286951,110.289179
975,Hickle-Pouros,793 Algoma Terrace,Nambak Tengah,11:00 AM,5:00 PM,-4.8919744,105.2779983
976,"Kunze, Hand and Greenholt",57 Golf View Place,Banatski Dvor,11:00 AM,3:30 PM,45.5260852,20.5135485
977,Cremin-Friesen,552 Hoepker Point,Baoshan,7:30 AM,2:30 PM,25.112046,99.161761
978,Boehm-Koch,17889 Hermina Trail,Busia,11:00 AM,4:00 PM,0.4607691,34.1114621
979,Larson-Stokes,0 Farmco Parkway,Paris 11,9:30 AM,2:30 PM,48.8610504,2.3237084
980,Hagenes Group,3148 Continental Alley,Stetseva,7:30 AM,3:30 PM,48.5264861,25.5701022
981,Ritchie-Gislason,3194 Transport Park,Queluz,8:30 AM,1:30 PM,38.7592621,-9.2760659
982,"Kihn, Friesen and Hilpert",46849 Arapahoe Plaza,Palca,8:00 AM,2:30 PM,-11.3442564,-75.5655147
983,Keebler-King,73 Oriole Court,Pasirsongket Dua,9:30 AM,3:00 PM,-7.3106,106.5946
984,"Lebsack, Bauch and Kling",4 Kropf Plaza,Junqueiro,10:00 AM,5:00 PM,38.6849828,-9.3469171
985,Nitzsche-Kreiger,115 Dryden Trail,San Diego,10:00 AM,2:30 PM,32.6969212,-117.1343318
986,Conn-Reilly,4557 Dapin Avenue,Dulangan,10:30 AM,3:00 PM,13.4689232,120.9800797
987,Harris Group,49 Macpherson Center,Кондово,11:00 AM,2:00 PM,40.9905239,21.426297
988,Heidenreich-Marks,9 6th Parkway,Zhuangke,10:00 AM,4:00 PM,39.680811,122.967328
989,Hahn-Kuhn,05 Vermont Place,Studénka,8:00 AM,2:30 PM,49.7234162,18.0785342
990,"Gleason, Bailey and Becker",2663 Victoria Hill,Cambé,7:30 AM,3:30 PM,-23.277052,-51.2803152
991,Lowe LLC,316 Hudson Avenue,Merkezköy,9:00 AM,3:30 PM,40.8321934,40.0092505
992,Friesen Inc,997 Granby Court,Port Hawkesbury,10:00 AM,1:00 PM,45.6152297,-61.3552089
993,Hills Group,9709 Hagan Parkway,Kavalerovo,8:00 AM,1:00 PM,44.2551686,135.0572606
994,"VonRueden, Heller and Kessler",285 Leroy Crossing,Wadusari,10:30 AM,4:30 PM,-7.3118486,108.6383454
995,Haley and Sons,157 Starling Street,Cabudare,9:30 AM,5:00 PM,10.0192191,-69.2519936
996,"Lind, Mitchell and Fay",1241 Petterle Way,Krasnoznamensk,10:30 AM,4:00 PM,55.597144,37.0361031
997,"Torphy, Nitzsche and Parisian",008 Kinsman Crossing,Jiangzhou,8:00 AM,4:30 PM,22.405325,107.353437
998,Christiansen Inc,0 Packers Alley,Bangilan,10:00 AM,1:30 PM,-6.96661,111.7018452
999,Gleichner-Kovacek,38395 Mallard Avenue,Katrineholm,11:00 AM,2:00 PM,58.9955511,16.2054756
1000,Lehner-Sporer,1816 Schiller Avenue,Jiaoshi,9:00 AM,3:00 PM,29.709214,107.606105
